<?xml version='1.0' encoding='UTF-8'?><gpx creator="YAMAP - https://yamap.com" xsi:schemaLocation="http://www.topografix.com/GPX/1/1 http://www.topografix.com/GPX/1/1/gpx.xsd" version="1.1" xmlns="http://www.topografix.com/GPX/1/1" xmlns:xsi="http://www.w3.org/2001/XMLSchema-instance"><metadata><bounds maxlat="36.27249143447202" maxlon="137.62625058795967" minlat="36.26558631482304" minlon="137.6016976512138"/></metadata><trk><name>西穂丸山・西穂独標</name><number>1</number><trkseg><trkpt lat="36.267917570465336" lon="137.60229313173778"><ele>2151.659761910327</ele><time>2026-08-14T22:24:23Z</time></trkpt><trkpt lat="36.26783435987894" lon="137.60208962026277"><ele>2154.9011971419677</ele><time>2026-08-14T22:24:29Z</time></trkpt><trkpt lat="36.26802318826676" lon="137.60195088719448"><ele>2153.2813216814525</ele><time>2026-08-14T22:24:41Z</time></trkpt><trkpt lat="36.26790251325631" lon="137.6016976512138"><ele>2171.397650473751</ele><time>2026-08-14T22:24:58Z</time></trkpt><trkpt lat="36.26806070416981" lon="137.60180563438772"><ele>2152.2136161448434</ele><time>2026-08-14T22:25:09Z</time></trkpt><trkpt lat="36.26786774301497" lon="137.60197918385197"><ele>2155.147865988314</ele><time>2026-08-14T22:31:50Z</time></trkpt><trkpt lat="36.268009805531015" lon="137.60216199191217"><ele>2157.907176378183</ele><time>2026-08-14T22:31:53Z</time></trkpt><trkpt lat="36.26817482989442" lon="137.60225341872874"><ele>2153.686642647721</ele><time>2026-08-14T22:32:26Z</time></trkpt><trkpt lat="36.268326156243276" lon="137.60238025752332"><ele>2152.173963174224</ele><time>2026-08-14T22:32:44Z</time></trkpt><trkpt lat="36.2685093822549" lon="137.60242667299943"><ele>2151.5650785099715</ele><time>2026-08-14T22:33:01Z</time></trkpt><trkpt lat="36.268629414388286" lon="137.60260492711646"><ele>2151.4946456728503</ele><time>2026-08-14T22:33:17Z</time></trkpt><trkpt lat="36.26879264666875" lon="137.6027187486242"><ele>2150.5927365059033</ele><time>2026-08-14T22:33:33Z</time></trkpt><trkpt lat="36.26873574484016" lon="137.60293475378663"><ele>2150.8410875024274</ele><time>2026-08-14T22:34:14Z</time></trkpt><trkpt lat="36.26855654178342" lon="137.60297528345853"><ele>2152.874662785791</ele><time>2026-08-14T22:34:28Z</time></trkpt><trkpt lat="36.26855515090759" lon="137.60320668131408"><ele>2152.5327344322577</ele><time>2026-08-14T22:34:44Z</time></trkpt><trkpt lat="36.26854521380218" lon="137.60343936603795"><ele>2148.712950276211</ele><time>2026-08-14T22:35:02Z</time></trkpt><trkpt lat="36.26860065078435" lon="137.60366045405354"><ele>2146.391188896261</ele><time>2026-08-14T22:35:18Z</time></trkpt><trkpt lat="36.268643199333575" lon="137.60388356238417"><ele>2144.0557326599956</ele><time>2026-08-14T22:35:33Z</time></trkpt><trkpt lat="36.26858501268661" lon="137.6040959839604"><ele>2144.7922934666276</ele><time>2026-08-14T22:35:49Z</time></trkpt><trkpt lat="36.26844827637719" lon="137.60425057443555"><ele>2147.6962964460254</ele><time>2026-08-14T22:36:11Z</time></trkpt><trkpt lat="36.26827874377081" lon="137.60416837449307"><ele>2143.9676975011826</ele><time>2026-08-14T22:36:30Z</time></trkpt><trkpt lat="36.26809636612806" lon="137.6042120295538"><ele>2145.528071017936</ele><time>2026-08-14T22:36:53Z</time></trkpt><trkpt lat="36.268064677498124" lon="137.60443368428173"><ele>2142.222883033566</ele><time>2026-08-14T22:37:15Z</time></trkpt><trkpt lat="36.26796077465389" lon="137.60462064036122"><ele>2136.3339154459536</ele><time>2026-08-14T22:37:46Z</time></trkpt><trkpt lat="36.26803830353598" lon="137.60482426037515"><ele>2134.1154430573806</ele><time>2026-08-14T22:38:05Z</time></trkpt><trkpt lat="36.267919633869006" lon="137.6049977431448"><ele>2135.221122839488</ele><time>2026-08-14T22:38:38Z</time></trkpt><trkpt lat="36.26793591415884" lon="137.6052360206381"><ele>2133.332957954146</ele><time>2026-08-14T22:39:06Z</time></trkpt><trkpt lat="36.2679781666094" lon="137.60545299849377"><ele>2136.0995939848945</ele><time>2026-08-14T22:39:29Z</time></trkpt><trkpt lat="36.267994889264536" lon="137.60567941125902"><ele>2137.0280327498913</ele><time>2026-08-14T22:39:58Z</time></trkpt><trkpt lat="36.268095503141836" lon="137.6058826697059"><ele>2137.9262407356873</ele><time>2026-08-14T22:40:28Z</time></trkpt><trkpt lat="36.268158322267396" lon="137.60610371943903"><ele>2138.9025120111182</ele><time>2026-08-14T22:40:56Z</time></trkpt><trkpt lat="36.26827853588705" lon="137.60627094982766"><ele>2137.4210097854957</ele><time>2026-08-14T22:41:22Z</time></trkpt><trkpt lat="36.2683899028411" lon="137.60644722326202"><ele>2139.575325973332</ele><time>2026-08-14T22:41:44Z</time></trkpt><trkpt lat="36.26851913183818" lon="137.60660607742088"><ele>2137.7841931423172</ele><time>2026-08-14T22:42:23Z</time></trkpt><trkpt lat="36.268533836358955" lon="137.6068318771247"><ele>2140.544327612035</ele><time>2026-08-14T22:42:47Z</time></trkpt><trkpt lat="36.2685381062379" lon="137.6070565006812"><ele>2140.0989621924236</ele><time>2026-08-14T22:43:09Z</time></trkpt><trkpt lat="36.26845752317409" lon="137.607270434534"><ele>2142.3337442828342</ele><time>2026-08-14T22:43:33Z</time></trkpt><trkpt lat="36.26838002153074" lon="137.60747715340057"><ele>2148.8312519248575</ele><time>2026-08-14T22:43:57Z</time></trkpt><trkpt lat="36.26823737727345" lon="137.60762145849642"><ele>2150.8245634632185</ele><time>2026-08-14T22:44:26Z</time></trkpt><trkpt lat="36.268092592733744" lon="137.60777161249382"><ele>2152.7345519466326</ele><time>2026-08-14T22:44:52Z</time></trkpt><trkpt lat="36.267963949796815" lon="137.6079341616135"><ele>2162.7072170833126</ele><time>2026-08-14T22:45:32Z</time></trkpt><trkpt lat="36.26786873896561" lon="137.6081318733288"><ele>2170.712615283206</ele><time>2026-08-14T22:46:02Z</time></trkpt><trkpt lat="36.26789430385696" lon="137.60835525201549"><ele>2173.4116276381537</ele><time>2026-08-14T22:46:29Z</time></trkpt><trkpt lat="36.26794153242811" lon="137.60857059909387"><ele>2172.0252449959517</ele><time>2026-08-14T22:46:48Z</time></trkpt><trkpt lat="36.26797669864742" lon="137.60879206052613"><ele>2171.0259915934876</ele><time>2026-08-14T22:47:08Z</time></trkpt><trkpt lat="36.268000629476354" lon="137.60901772623916"><ele>2162.442670190707</ele><time>2026-08-14T22:47:39Z</time></trkpt><trkpt lat="36.26791815828303" lon="137.60922461451614"><ele>2160.2043373864144</ele><time>2026-08-14T22:48:00Z</time></trkpt><trkpt lat="36.26783293118102" lon="137.60943252923084"><ele>2162.6863444764167</ele><time>2026-08-14T22:48:21Z</time></trkpt><trkpt lat="36.26772572011868" lon="137.60961508489657"><ele>2167.0090024685487</ele><time>2026-08-14T22:48:43Z</time></trkpt><trkpt lat="36.267672864329484" lon="137.6098355993642"><ele>2168.8993016956374</ele><time>2026-08-14T22:49:08Z</time></trkpt><trkpt lat="36.26773515629855" lon="137.61004519161224"><ele>2164.2459559915587</ele><time>2026-08-14T22:49:38Z</time></trkpt><trkpt lat="36.26782728440642" lon="137.6102440012644"><ele>2158.7425994519144</ele><time>2026-08-14T22:50:08Z</time></trkpt><trkpt lat="36.267872971193356" lon="137.6104683191974"><ele>2157.371461506933</ele><time>2026-08-14T22:50:28Z</time></trkpt><trkpt lat="36.26792965797386" lon="137.6106814705282"><ele>2152.241571580991</ele><time>2026-08-14T22:50:47Z</time></trkpt><trkpt lat="36.26796408082116" lon="137.6109011272926"><ele>2150.939173007384</ele><time>2026-08-14T22:51:07Z</time></trkpt><trkpt lat="36.26795448084119" lon="137.61113010416855"><ele>2147.3602688116953</ele><time>2026-08-14T22:51:26Z</time></trkpt><trkpt lat="36.26807345221702" lon="137.61130177683367"><ele>2147.1400960581377</ele><time>2026-08-14T22:51:51Z</time></trkpt><trkpt lat="36.26818621689264" lon="137.61148020171626"><ele>2156.2679182589054</ele><time>2026-08-14T22:52:35Z</time></trkpt><trkpt lat="36.26817260548196" lon="137.61170509352664"><ele>2160.064094421454</ele><time>2026-08-14T22:53:04Z</time></trkpt><trkpt lat="36.268154127982164" lon="137.61194304878336"><ele>2162.4872937323526</ele><time>2026-08-14T22:53:38Z</time></trkpt><trkpt lat="36.26807181418137" lon="137.61214482673756"><ele>2160.833977587521</ele><time>2026-08-14T22:53:59Z</time></trkpt><trkpt lat="36.26807337125651" lon="137.61236854270658"><ele>2165.875795861706</ele><time>2026-08-14T22:54:21Z</time></trkpt><trkpt lat="36.26814704257364" lon="137.6125845435359"><ele>2165.9529228024185</ele><time>2026-08-14T22:54:41Z</time></trkpt><trkpt lat="36.26818857581611" lon="137.61280480760354"><ele>2174.117723090574</ele><time>2026-08-14T22:55:16Z</time></trkpt><trkpt lat="36.26831981275053" lon="137.61295840968884"><ele>2177.9383141063154</ele><time>2026-08-14T22:55:39Z</time></trkpt><trkpt lat="36.26830454380466" lon="137.61318020134317"><ele>2181.5585968494415</ele><time>2026-08-14T22:56:09Z</time></trkpt><trkpt lat="36.268128613874815" lon="137.61312288145854"><ele>2188.8055136203766</ele><time>2026-08-14T22:56:33Z</time></trkpt><trkpt lat="36.26798395447865" lon="137.61326162262853"><ele>2195.5721803028136</ele><time>2026-08-14T22:56:59Z</time></trkpt><trkpt lat="36.26797720114366" lon="137.61349500903015"><ele>2195.5586724234745</ele><time>2026-08-14T22:57:25Z</time></trkpt><trkpt lat="36.267982447325345" lon="137.61371864345514"><ele>2203.5592742310837</ele><time>2026-08-14T22:57:54Z</time></trkpt><trkpt lat="36.26797467205116" lon="137.613951537087"><ele>2202.191547004506</ele><time>2026-08-14T22:58:15Z</time></trkpt><trkpt lat="36.267864263540844" lon="137.61414394490785"><ele>2203.5215227780864</ele><time>2026-08-14T22:58:33Z</time></trkpt><trkpt lat="36.267805256665866" lon="137.61435674351762"><ele>2212.260314567946</ele><time>2026-08-14T22:58:57Z</time></trkpt><trkpt lat="36.26775126940191" lon="137.6145748516256"><ele>2222.231942315586</ele><time>2026-08-14T22:59:40Z</time></trkpt><trkpt lat="36.26764105204001" lon="137.61475991953364"><ele>2229.326758778654</ele><time>2026-08-14T23:00:19Z</time></trkpt><trkpt lat="36.26766018452139" lon="137.61499536079089"><ele>2243.959147314541</ele><time>2026-08-14T23:00:49Z</time></trkpt><trkpt lat="36.267539076648696" lon="137.6151672478555"><ele>2247.876039943658</ele><time>2026-08-14T23:01:16Z</time></trkpt><trkpt lat="36.26757787030073" lon="137.61538465195773"><ele>2247.552572593093</ele><time>2026-08-14T23:01:42Z</time></trkpt><trkpt lat="36.26766199911877" lon="137.61558815835144"><ele>2258.8135783011094</ele><time>2026-08-14T23:02:09Z</time></trkpt><trkpt lat="36.26771043206351" lon="137.61580398571164"><ele>2258.5333187365904</ele><time>2026-08-14T23:02:37Z</time></trkpt><trkpt lat="36.26769281778745" lon="137.6160272519163"><ele>2264.177056998946</ele><time>2026-08-14T23:03:16Z</time></trkpt><trkpt lat="36.26764642897569" lon="137.61624371710514"><ele>2274.5755353597924</ele><time>2026-08-14T23:03:43Z</time></trkpt><trkpt lat="36.267660567369454" lon="137.6164804416351"><ele>2281.2622670568526</ele><time>2026-08-14T23:04:38Z</time></trkpt><trkpt lat="36.26751645195494" lon="137.61661591588228"><ele>2294.9408395374194</ele><time>2026-08-14T23:05:34Z</time></trkpt><trkpt lat="36.26734390944294" lon="137.61669846041633"><ele>2306.9498894782737</ele><time>2026-08-14T23:06:27Z</time></trkpt><trkpt lat="36.26720605861913" lon="137.6168590317165"><ele>2312.732087071985</ele><time>2026-08-14T23:07:04Z</time></trkpt><trkpt lat="36.26713328011251" lon="137.6170641748226"><ele>2324.830372609198</ele><time>2026-08-14T23:07:41Z</time></trkpt><trkpt lat="36.26699873928739" lon="137.61721371351248"><ele>2333.215746051632</ele><time>2026-08-14T23:08:38Z</time></trkpt><trkpt lat="36.26706697074399" lon="137.61742819974867"><ele>2340.0797037053853</ele><time>2026-08-14T23:09:13Z</time></trkpt><trkpt lat="36.267095479049345" lon="137.61765791836365"><ele>2347.5655973339453</ele><time>2026-08-14T23:09:56Z</time></trkpt><trkpt lat="36.2669088803057" lon="137.61768381476045"><ele>2351.566647797823</ele><time>2026-08-14T23:10:25Z</time></trkpt><trkpt lat="36.26673578625534" lon="137.6175941371261"><ele>2357.885153271258</ele><time>2026-08-14T23:10:47Z</time></trkpt><trkpt lat="36.266552450121196" lon="137.61754233259063"><ele>2361.8289384953678</ele><time>2026-08-14T23:11:15Z</time></trkpt><trkpt lat="36.26637316369428" lon="137.61758235002793"><ele>2364.707902685739</ele><time>2026-08-14T23:11:46Z</time></trkpt><trkpt lat="36.26619363924441" lon="137.61756080542366"><ele>2369.1571679720655</ele><time>2026-08-14T23:12:32Z</time></trkpt><trkpt lat="36.26600894055926" lon="137.6175045134"><ele>2368.1065251613036</ele><time>2026-08-14T23:12:50Z</time></trkpt><trkpt lat="36.265838687337336" lon="137.61739646742805"><ele>2366.903887361288</ele><time>2026-08-14T23:13:05Z</time></trkpt><trkpt lat="36.26567731660947" lon="137.61749755910336"><ele>2366.1379185654223</ele><time>2026-08-14T23:13:51Z</time></trkpt><trkpt lat="36.2657192821511" lon="137.61771663259154"><ele>2371.443989140913</ele><time>2026-08-14T23:15:09Z</time></trkpt><trkpt lat="36.26558631482304" lon="137.6178800011608"><ele>2375.0404248218983</ele><time>2026-08-14T23:15:53Z</time></trkpt><trkpt lat="36.265740491586655" lon="137.61799663257256"><ele>2381.10774833709</ele><time>2026-08-14T23:18:21Z</time></trkpt><trkpt lat="36.26589249584628" lon="137.6181201432111"><ele>2388.833884926513</ele><time>2026-08-14T23:19:04Z</time></trkpt><trkpt lat="36.26593689753644" lon="137.61833758092968"><ele>2400.1557565117255</ele><time>2026-08-14T23:19:57Z</time></trkpt><trkpt lat="36.266045606293304" lon="137.61852310649004"><ele>2406.5384550737217</ele><time>2026-08-14T23:20:34Z</time></trkpt><trkpt lat="36.266088435041794" lon="137.6187397353396"><ele>2416.1174907330424</ele><time>2026-08-14T23:21:24Z</time></trkpt><trkpt lat="36.266136454279405" lon="137.61896340409191"><ele>2419.881073000841</ele><time>2026-08-14T23:22:11Z</time></trkpt><trkpt lat="36.26627837069407" lon="137.61911407541126"><ele>2421.890902645886</ele><time>2026-08-14T23:22:31Z</time></trkpt><trkpt lat="36.26639129226012" lon="137.61929128245274"><ele>2426.781087181531</ele><time>2026-08-14T23:23:06Z</time></trkpt><trkpt lat="36.266426814838276" lon="137.61951048202818"><ele>2432.6881188489497</ele><time>2026-08-14T23:23:35Z</time></trkpt><trkpt lat="36.26642308031743" lon="137.61973876911887"><ele>2435.4324049483985</ele><time>2026-08-14T23:26:02Z</time></trkpt><trkpt lat="36.26645044093143" lon="137.6199589573611"><ele>2435.4518599445</ele><time>2026-08-14T23:26:41Z</time></trkpt><trkpt lat="36.26650307548542" lon="137.6201757818265"><ele>2437.191053232178</ele><time>2026-08-14T23:27:01Z</time></trkpt><trkpt lat="36.26656279788124" lon="137.62039156395502"><ele>2440.005981530994</ele><time>2026-08-14T23:27:19Z</time></trkpt><trkpt lat="36.26663807363453" lon="137.62060831063008"><ele>2440.6456118011847</ele><time>2026-08-14T23:27:40Z</time></trkpt><trkpt lat="36.266800314976564" lon="137.6207210556462"><ele>2440.7864136183634</ele><time>2026-08-14T23:28:01Z</time></trkpt><trkpt lat="36.26695063398143" lon="137.620846314814"><ele>2448.281744032167</ele><time>2026-08-14T23:28:48Z</time></trkpt><trkpt lat="36.26713739141479" lon="137.62089720493074"><ele>2448.074328930117</ele><time>2026-08-14T23:29:11Z</time></trkpt><trkpt lat="36.26731704980207" lon="137.62085928996635"><ele>2451.2333903927356</ele><time>2026-08-14T23:29:30Z</time></trkpt><trkpt lat="36.26749778298756" lon="137.62093179356262"><ele>2450.7267449731007</ele><time>2026-08-14T23:30:15Z</time></trkpt><trkpt lat="36.26767931750877" lon="137.62094526371536"><ele>2454.904911668971</ele><time>2026-08-14T23:30:37Z</time></trkpt><trkpt lat="36.26782554472609" lon="137.62108146665497"><ele>2451.985581806861</ele><time>2026-08-14T23:31:12Z</time></trkpt><trkpt lat="36.26792218978643" lon="137.62128294439574"><ele>2447.7670523645356</ele><time>2026-08-14T23:31:35Z</time></trkpt><trkpt lat="36.26807849281625" lon="137.62141575641056"><ele>2447.8188509205356</ele><time>2026-08-14T23:31:54Z</time></trkpt><trkpt lat="36.268228453491574" lon="137.62156423759012"><ele>2450.7324497988448</ele><time>2026-08-14T23:32:15Z</time></trkpt><trkpt lat="36.26836455078355" lon="137.62172171964713"><ele>2455.9298336403444</ele><time>2026-08-14T23:32:46Z</time></trkpt><trkpt lat="36.26854120927653" lon="137.62176767863474"><ele>2462.8236340368167</ele><time>2026-08-14T23:33:14Z</time></trkpt><trkpt lat="36.26864095017177" lon="137.62195741870863"><ele>2463.838831856847</ele><time>2026-08-14T23:33:48Z</time></trkpt><trkpt lat="36.268737265001604" lon="137.62214616443342"><ele>2469.385936732404</ele><time>2026-08-14T23:34:20Z</time></trkpt><trkpt lat="36.26888615889386" lon="137.6222785650543"><ele>2473.6761825941503</ele><time>2026-08-14T23:34:48Z</time></trkpt><trkpt lat="36.26900521794572" lon="137.62244975096547"><ele>2480.103722930886</ele><time>2026-08-14T23:35:29Z</time></trkpt><trkpt lat="36.26918136648758" lon="137.6225213751179"><ele>2488.970193660818</ele><time>2026-08-14T23:36:01Z</time></trkpt><trkpt lat="36.269345676502816" lon="137.62262851146636"><ele>2498.707088340074</ele><time>2026-08-14T23:36:44Z</time></trkpt><trkpt lat="36.26944832150211" lon="137.62281700111117"><ele>2506.778113349341</ele><time>2026-08-14T23:37:42Z</time></trkpt><trkpt lat="36.26961342445611" lon="137.6229125850809"><ele>2516.744407892227</ele><time>2026-08-14T23:38:29Z</time></trkpt><trkpt lat="36.26975971493451" lon="137.6230475569307"><ele>2527.147726794705</ele><time>2026-08-14T23:39:40Z</time></trkpt><trkpt lat="36.26994278571164" lon="137.6230676402934"><ele>2536.5013373224065</ele><time>2026-08-14T23:40:36Z</time></trkpt><trkpt lat="36.27008470730487" lon="137.62320613734133"><ele>2547.485924226232</ele><time>2026-08-14T23:41:37Z</time></trkpt><trkpt lat="36.27024964906518" lon="137.6233026868218"><ele>2558.477105469443</ele><time>2026-08-14T23:42:25Z</time></trkpt><trkpt lat="36.27040589059133" lon="137.62341409303107"><ele>2566.777578900568</ele><time>2026-08-14T23:43:35Z</time></trkpt><trkpt lat="36.27054655785401" lon="137.62356018687407"><ele>2576.8993176007643</ele><time>2026-08-14T23:44:36Z</time></trkpt><trkpt lat="36.27063392298307" lon="137.62375692998782"><ele>2584.20110950619</ele><time>2026-08-14T23:45:22Z</time></trkpt><trkpt lat="36.27068780987791" lon="137.62397141558327"><ele>2591.3148535043</ele><time>2026-08-14T23:46:14Z</time></trkpt><trkpt lat="36.270768648717684" lon="137.62417051158042"><ele>2593.8427500501275</ele><time>2026-08-14T23:47:01Z</time></trkpt><trkpt lat="36.27071309437315" lon="137.62438370863862"><ele>2601.9287672648206</ele><time>2026-08-14T23:47:57Z</time></trkpt><trkpt lat="36.27081625918391" lon="137.62457093419792"><ele>2608.1049833195284</ele><time>2026-08-14T23:48:28Z</time></trkpt><trkpt lat="36.27091652358883" lon="137.62475614052033"><ele>2614.9578010300174</ele><time>2026-08-14T23:49:08Z</time></trkpt><trkpt lat="36.27101278861008" lon="137.6249477211378"><ele>2626.4535411233082</ele><time>2026-08-14T23:50:11Z</time></trkpt><trkpt lat="36.27112101174771" lon="137.62512575023987"><ele>2635.111055064015</ele><time>2026-08-14T23:51:04Z</time></trkpt><trkpt lat="36.27121573957676" lon="137.62531671139973"><ele>2641.2846253812313</ele><time>2026-08-14T23:51:52Z</time></trkpt><trkpt lat="36.27137244162881" lon="137.62544215413863"><ele>2644.400671883486</ele><time>2026-08-14T23:52:19Z</time></trkpt><trkpt lat="36.271555979431106" lon="137.625451228347"><ele>2647.4833754487336</ele><time>2026-08-14T23:53:39Z</time></trkpt><trkpt lat="36.271655912721315" lon="137.62564230018813"><ele>2656.807599451393</ele><time>2026-08-14T23:54:43Z</time></trkpt><trkpt lat="36.27176750753674" lon="137.6258175771338"><ele>2660.3869656668976</ele><time>2026-08-14T23:55:21Z</time></trkpt><trkpt lat="36.2719023321171" lon="137.62596680426304"><ele>2662.4614324839786</ele><time>2026-08-14T23:56:17Z</time></trkpt><trkpt lat="36.27206147910001" lon="137.62607748101016"><ele>2667.5144098186865</ele><time>2026-08-14T23:57:03Z</time></trkpt><trkpt lat="36.27223367983256" lon="137.62616962378837"><ele>2667.903364500031</ele><time>2026-08-14T23:58:06Z</time></trkpt><trkpt lat="36.2724029731653" lon="137.6260562860862"><ele>2672.483036024496</ele><time>2026-08-14T23:58:26Z</time></trkpt><trkpt lat="36.27249143447202" lon="137.62625058795967"><ele>2685.967468493618</ele><time>2026-08-15T00:01:29Z</time></trkpt></trkseg></trk></gpx>