<?xml version='1.0' encoding='UTF-8'?><gpx creator="YAMAP - https://yamap.com" xsi:schemaLocation="http://www.topografix.com/GPX/1/1 http://www.topografix.com/GPX/1/1/gpx.xsd" version="1.1" xmlns="http://www.topografix.com/GPX/1/1" xmlns:xsi="http://www.w3.org/2001/XMLSchema-instance"><metadata><bounds maxlat="35.99869670530137" maxlon="138.37441522068508" minlat="35.97074499505126" minlon="138.33705733686836"/></metadata><trk><name>地蔵ノ頭・赤岳（八ヶ岳）・石尊峰・横岳（三叉峰）・横岳（無名峰）・横岳（奥ノ院）・台座ノ頭・硫...</name><number>1</number><trkseg><trkpt lat="35.979641077756746" lon="138.33705733686836"><ele>1875.2932410342619</ele><time>2026-09-11T22:45:50Z</time></trkpt><trkpt lat="35.97955154128221" lon="138.3372514521246"><ele>1876.606841580011</ele><time>2026-09-11T22:46:07Z</time></trkpt><trkpt lat="35.979423141680314" lon="138.33740781786125"><ele>1874.8536765687168</ele><time>2026-09-11T22:46:26Z</time></trkpt><trkpt lat="35.97935439853884" lon="138.3376141657601"><ele>1875.7530416259542</ele><time>2026-09-11T22:46:53Z</time></trkpt><trkpt lat="35.97931768473755" lon="138.33783840489937"><ele>1882.1678107613698</ele><time>2026-09-11T22:47:24Z</time></trkpt><trkpt lat="35.979281741810745" lon="138.33806213094113"><ele>1884.490088550374</ele><time>2026-09-11T22:47:46Z</time></trkpt><trkpt lat="35.97920456173969" lon="138.3382714391413"><ele>1883.623606627807</ele><time>2026-09-11T22:48:05Z</time></trkpt><trkpt lat="35.97917127067998" lon="138.33849356769392"><ele>1887.5594756510109</ele><time>2026-09-11T22:48:21Z</time></trkpt><trkpt lat="35.97910617266207" lon="138.33870626782547"><ele>1890.986306656152</ele><time>2026-09-11T22:48:44Z</time></trkpt><trkpt lat="35.97902511410307" lon="138.33890724761721"><ele>1896.7239703135565</ele><time>2026-09-11T22:49:11Z</time></trkpt><trkpt lat="35.97890783776683" lon="138.33908116630832"><ele>1901.312006262131</ele><time>2026-09-11T22:49:34Z</time></trkpt><trkpt lat="35.97886314699827" lon="138.33929748097478"><ele>1903.6322223115712</ele><time>2026-09-11T22:49:53Z</time></trkpt><trkpt lat="35.97889096284506" lon="138.33952466995265"><ele>1907.881395782344</ele><time>2026-09-11T22:50:11Z</time></trkpt><trkpt lat="35.97887964672295" lon="138.3397539454051"><ele>1915.4602505229414</ele><time>2026-09-11T22:50:34Z</time></trkpt><trkpt lat="35.979065277540315" lon="138.33973807104908"><ele>1920.4642024366185</ele><time>2026-09-11T22:51:34Z</time></trkpt><trkpt lat="35.979084610615914" lon="138.33995897841132"><ele>1930.5786320641637</ele><time>2026-09-11T22:52:14Z</time></trkpt><trkpt lat="35.97909534365249" lon="138.34018127757244"><ele>1941.7854108065367</ele><time>2026-09-11T22:52:37Z</time></trkpt><trkpt lat="35.97927243339916" lon="138.34012216317274"><ele>1944.493660240434</ele><time>2026-09-11T22:53:37Z</time></trkpt><trkpt lat="35.979327150778516" lon="138.34033589506123"><ele>1952.1656845137477</ele><time>2026-09-11T22:54:13Z</time></trkpt><trkpt lat="35.97920346946085" lon="138.34050398864463"><ele>1958.5931619871408</ele><time>2026-09-11T22:54:33Z</time></trkpt><trkpt lat="35.97913006117045" lon="138.3407172449506"><ele>1974.0022220136598</ele><time>2026-09-11T22:54:55Z</time></trkpt><trkpt lat="35.979023399287826" lon="138.3409029186465"><ele>1972.4225589949638</ele><time>2026-09-11T22:55:41Z</time></trkpt><trkpt lat="35.97890264521188" lon="138.34108557171223"><ele>1976.1937462063506</ele><time>2026-09-11T22:56:27Z</time></trkpt><trkpt lat="35.978773289079086" lon="138.3412451061655"><ele>1979.7581574032083</ele><time>2026-09-11T22:56:54Z</time></trkpt><trkpt lat="35.97865350988189" lon="138.34142013206304"><ele>1990.5139154689386</ele><time>2026-09-11T22:57:34Z</time></trkpt><trkpt lat="35.978514706012305" lon="138.34156181936723"><ele>1994.4485007710755</ele><time>2026-09-11T22:58:00Z</time></trkpt><trkpt lat="35.978357554243686" lon="138.34167313530574"><ele>2000.0595346773043</ele><time>2026-09-11T22:58:28Z</time></trkpt><trkpt lat="35.97829148972155" lon="138.34188578817634"><ele>1999.7721230294555</ele><time>2026-09-11T22:59:02Z</time></trkpt><trkpt lat="35.978226905207606" lon="138.34209923518756"><ele>2005.577148385346</ele><time>2026-09-11T22:59:31Z</time></trkpt><trkpt lat="35.97819425468824" lon="138.3423175949786"><ele>2008.5942557035014</ele><time>2026-09-11T22:59:44Z</time></trkpt><trkpt lat="35.97808762739612" lon="138.34250923774766"><ele>2012.1701730415225</ele><time>2026-09-11T23:00:11Z</time></trkpt><trkpt lat="35.97793802250741" lon="138.34264499215666"><ele>2012.084265598096</ele><time>2026-09-11T23:00:30Z</time></trkpt><trkpt lat="35.977838962129574" lon="138.34283865972057"><ele>2012.5166293932125</ele><time>2026-09-11T23:00:52Z</time></trkpt><trkpt lat="35.977757845574494" lon="138.3430412601393"><ele>2015.54488868732</ele><time>2026-09-11T23:01:16Z</time></trkpt><trkpt lat="35.97765443043724" lon="138.3432236040574"><ele>2017.5100589524955</ele><time>2026-09-11T23:01:41Z</time></trkpt><trkpt lat="35.9775194327613" lon="138.34340492475545"><ele>2019.3943155584857</ele><time>2026-09-11T23:02:06Z</time></trkpt><trkpt lat="35.97748083621731" lon="138.3436368255515"><ele>2023.7595401341096</ele><time>2026-09-11T23:02:27Z</time></trkpt><trkpt lat="35.97736648460786" lon="138.34381837733332"><ele>2026.856922665611</ele><time>2026-09-11T23:02:47Z</time></trkpt><trkpt lat="35.977312908270704" lon="138.34403218298834"><ele>2035.2215093327686</ele><time>2026-09-11T23:03:21Z</time></trkpt><trkpt lat="35.97724315137799" lon="138.34423853003685"><ele>2041.1973691200837</ele><time>2026-09-11T23:03:39Z</time></trkpt><trkpt lat="35.977285768835095" lon="138.3444550816016"><ele>2049.8388895839453</ele><time>2026-09-11T23:04:11Z</time></trkpt><trkpt lat="35.977297893314784" lon="138.3446763429772"><ele>2053.32334375754</ele><time>2026-09-11T23:04:49Z</time></trkpt><trkpt lat="35.97743448497802" lon="138.34483488551717"><ele>2054.164635585621</ele><time>2026-09-11T23:05:13Z</time></trkpt><trkpt lat="35.977381716320124" lon="138.34504845896188"><ele>2062.7551455702633</ele><time>2026-09-11T23:06:07Z</time></trkpt><trkpt lat="35.977471997251605" lon="138.34524041857318"><ele>2055.99252979178</ele><time>2026-09-11T23:06:41Z</time></trkpt><trkpt lat="35.97763647544971" lon="138.34535833882111"><ele>2064.9893071288243</ele><time>2026-09-11T23:07:17Z</time></trkpt><trkpt lat="35.97774256203751" lon="138.34554563862625"><ele>2070.1179758738726</ele><time>2026-09-11T23:07:40Z</time></trkpt><trkpt lat="35.97773886398255" lon="138.34577193552644"><ele>2068.471133634448</ele><time>2026-09-11T23:08:09Z</time></trkpt><trkpt lat="35.97771572848446" lon="138.345995839148"><ele>2074.20955170691</ele><time>2026-09-11T23:08:34Z</time></trkpt><trkpt lat="35.97789804514162" lon="138.34601799369727"><ele>2077.110365489498</ele><time>2026-09-11T23:09:07Z</time></trkpt><trkpt lat="35.97807465700728" lon="138.3460685314198"><ele>2083.4334963150322</ele><time>2026-09-11T23:09:35Z</time></trkpt><trkpt lat="35.978119505596446" lon="138.3462975584602"><ele>2086.3831275878474</ele><time>2026-09-11T23:09:54Z</time></trkpt><trkpt lat="35.97823251004569" lon="138.34647604331695"><ele>2086.593079167418</ele><time>2026-09-11T23:10:33Z</time></trkpt><trkpt lat="35.97824339629001" lon="138.3467047555868"><ele>2099.789795909077</ele><time>2026-09-11T23:11:25Z</time></trkpt><trkpt lat="35.978334345701654" lon="138.34689784217483"><ele>2102.805128374137</ele><time>2026-09-11T23:11:44Z</time></trkpt><trkpt lat="35.978389121707664" lon="138.34711441857013"><ele>2105.5500902170315</ele><time>2026-09-11T23:12:04Z</time></trkpt><trkpt lat="35.97837217544667" lon="138.3473409085983"><ele>2108.7083448581398</ele><time>2026-09-11T23:12:30Z</time></trkpt><trkpt lat="35.978345740406006" lon="138.3475613017882"><ele>2112.555341264233</ele><time>2026-09-11T23:12:55Z</time></trkpt><trkpt lat="35.9784048632641" lon="138.34777137849284"><ele>2119.1048967540264</ele><time>2026-09-11T23:13:30Z</time></trkpt><trkpt lat="35.97854735200096" lon="138.34763338012755"><ele>2126.620040374808</ele><time>2026-09-11T23:13:52Z</time></trkpt><trkpt lat="35.978538841096004" lon="138.34785806008367"><ele>2132.169795564376</ele><time>2026-09-11T23:14:46Z</time></trkpt><trkpt lat="35.978479671724706" lon="138.34807882076373"><ele>2134.7885192371905</ele><time>2026-09-11T23:15:19Z</time></trkpt><trkpt lat="35.978401823380096" lon="138.34827896405884"><ele>2141.732452502474</ele><time>2026-09-11T23:16:02Z</time></trkpt><trkpt lat="35.97833252449941" lon="138.34848713296438"><ele>2150.88316719234</ele><time>2026-09-11T23:16:39Z</time></trkpt><trkpt lat="35.97817884685155" lon="138.34860702950104"><ele>2156.2010234165937</ele><time>2026-09-11T23:17:20Z</time></trkpt><trkpt lat="35.97809398992095" lon="138.34880708732757"><ele>2157.7996980547905</ele><time>2026-09-11T23:17:43Z</time></trkpt><trkpt lat="35.978113512556384" lon="138.34903767848576"><ele>2171.6143402243033</ele><time>2026-09-11T23:18:14Z</time></trkpt><trkpt lat="35.97815868412754" lon="138.34926025891485"><ele>2175.2564747566357</ele><time>2026-09-11T23:18:37Z</time></trkpt><trkpt lat="35.97815151745404" lon="138.34948508947315"><ele>2173.8988084290177</ele><time>2026-09-11T23:19:42Z</time></trkpt><trkpt lat="35.97823912088005" lon="138.34968019695637"><ele>2178.8681805171072</ele><time>2026-09-11T23:20:09Z</time></trkpt><trkpt lat="35.978232833906716" lon="138.3499085338929"><ele>2178.58571233321</ele><time>2026-09-11T23:20:29Z</time></trkpt><trkpt lat="35.97828617292242" lon="138.3501267347185"><ele>2182.5964973038062</ele><time>2026-09-11T23:20:56Z</time></trkpt><trkpt lat="35.978387115778546" lon="138.35032412520337"><ele>2182.152279502712</ele><time>2026-09-11T23:21:19Z</time></trkpt><trkpt lat="35.97849336402429" lon="138.35050464651238"><ele>2184.4574869908392</ele><time>2026-09-11T23:21:56Z</time></trkpt><trkpt lat="35.97860845851915" lon="138.35068121460623"><ele>2191.8004089901224</ele><time>2026-09-11T23:22:28Z</time></trkpt><trkpt lat="35.97868283592931" lon="138.35089724288244"><ele>2191.2543862638995</ele><time>2026-09-11T23:24:12Z</time></trkpt><trkpt lat="35.97865458840088" lon="138.35112312083749"><ele>2202.439404516481</ele><time>2026-09-11T23:24:51Z</time></trkpt><trkpt lat="35.978689422607694" lon="138.3513521912911"><ele>2201.93022552412</ele><time>2026-09-11T23:25:34Z</time></trkpt><trkpt lat="35.97857303629868" lon="138.3515232297546"><ele>2210.5064237667248</ele><time>2026-09-11T23:26:00Z</time></trkpt><trkpt lat="35.97847645619073" lon="138.3517147891228"><ele>2218.959759408608</ele><time>2026-09-11T23:26:46Z</time></trkpt><trkpt lat="35.97836338994039" lon="138.3518875068801"><ele>2227.7902827737853</ele><time>2026-09-11T23:27:17Z</time></trkpt><trkpt lat="35.978427363851736" lon="138.3521108702162"><ele>2225.121694540605</ele><time>2026-09-11T23:27:34Z</time></trkpt><trkpt lat="35.97852506835429" lon="138.35231517741403"><ele>2223.9010029658675</ele><time>2026-09-11T23:27:57Z</time></trkpt><trkpt lat="35.978662154763924" lon="138.35247147162517"><ele>2227.2961172740906</ele><time>2026-09-11T23:28:14Z</time></trkpt><trkpt lat="35.9787947127719" lon="138.35263083803682"><ele>2227.565323052928</ele><time>2026-09-11T23:28:34Z</time></trkpt><trkpt lat="35.97893817803272" lon="138.35277545126618"><ele>2229.183068579063</ele><time>2026-09-11T23:29:05Z</time></trkpt><trkpt lat="35.9790881624824" lon="138.35292883735775"><ele>2230.764292962849</ele><time>2026-09-11T23:29:20Z</time></trkpt><trkpt lat="35.9792351573564" lon="138.35306434980265"><ele>2231.720289554447</ele><time>2026-09-11T23:29:36Z</time></trkpt><trkpt lat="35.97934347966817" lon="138.3532423880231"><ele>2232.8591394508258</ele><time>2026-09-11T23:29:58Z</time></trkpt><trkpt lat="35.97933644903569" lon="138.35346672748332"><ele>2235.2010392723605</ele><time>2026-09-11T23:30:11Z</time></trkpt><trkpt lat="35.97928935388856" lon="138.35368962174266"><ele>2238.0102753471583</ele><time>2026-09-11T23:30:25Z</time></trkpt><trkpt lat="35.97931049303097" lon="138.35392127589915"><ele>2236.6500519663095</ele><time>2026-09-11T23:30:49Z</time></trkpt><trkpt lat="35.979381505153846" lon="138.35413214333465"><ele>2240.3618224943057</ele><time>2026-09-11T23:31:03Z</time></trkpt><trkpt lat="35.97948825213454" lon="138.35431594915215"><ele>2240.871402401477</ele><time>2026-09-11T23:31:17Z</time></trkpt><trkpt lat="35.97958580750433" lon="138.3545120319743"><ele>2238.8956408016384</ele><time>2026-09-11T23:31:32Z</time></trkpt><trkpt lat="35.979649904471124" lon="138.35474839447102"><ele>2242.0718662897125</ele><time>2026-09-11T23:31:51Z</time></trkpt><trkpt lat="35.97974397810384" lon="138.3549403699983"><ele>2245.1952547784895</ele><time>2026-09-11T23:32:06Z</time></trkpt><trkpt lat="35.97983877300506" lon="138.3551344965507"><ele>2249.971804299392</ele><time>2026-09-11T23:32:21Z</time></trkpt><trkpt lat="35.97994454344584" lon="138.3553214653598"><ele>2252.4085510857403</ele><time>2026-09-11T23:32:35Z</time></trkpt><trkpt lat="35.98008730877198" lon="138.35548301021106"><ele>2253.4584417790174</ele><time>2026-09-11T23:32:51Z</time></trkpt><trkpt lat="35.98019578438672" lon="138.35566313704243"><ele>2255.439331524074</ele><time>2026-09-11T23:33:06Z</time></trkpt><trkpt lat="35.98032208887183" lon="138.3558280183202"><ele>2255.902075992897</ele><time>2026-09-11T23:33:20Z</time></trkpt><trkpt lat="35.980442849813926" lon="138.35600463184946"><ele>2255.9402397423983</ele><time>2026-09-11T23:33:36Z</time></trkpt><trkpt lat="35.98055498254239" lon="138.3561867701411"><ele>2260.432860976085</ele><time>2026-09-11T23:33:53Z</time></trkpt><trkpt lat="35.980626765029875" lon="138.3563943386281"><ele>2259.277246005833</ele><time>2026-09-11T23:34:07Z</time></trkpt><trkpt lat="35.98067156756444" lon="138.35661966805924"><ele>2263.2925499612466</ele><time>2026-09-11T23:34:23Z</time></trkpt><trkpt lat="35.98068102363306" lon="138.35684265811113"><ele>2265.1576174702495</ele><time>2026-09-11T23:34:39Z</time></trkpt><trkpt lat="35.98073209734512" lon="138.35705661344016"><ele>2268.828128761612</ele><time>2026-09-11T23:35:13Z</time></trkpt><trkpt lat="35.98069605418158" lon="138.35727741125598"><ele>2269.195842546411</ele><time>2026-09-11T23:35:27Z</time></trkpt><trkpt lat="35.980694268803" lon="138.35750002936663"><ele>2271.4699820159003</ele><time>2026-09-11T23:35:42Z</time></trkpt><trkpt lat="35.98073782801172" lon="138.3577348867264"><ele>2273.4278266523033</ele><time>2026-09-11T23:35:56Z</time></trkpt><trkpt lat="35.98080291708466" lon="138.3579503162315"><ele>2274.4484253758565</ele><time>2026-09-11T23:36:12Z</time></trkpt><trkpt lat="35.980887757119156" lon="138.35815349212095"><ele>2273.0552370250225</ele><time>2026-09-11T23:36:27Z</time></trkpt><trkpt lat="35.980955257302135" lon="138.35836633794074"><ele>2278.1664783367887</ele><time>2026-09-11T23:36:43Z</time></trkpt><trkpt lat="35.980936656724985" lon="138.3585942610422"><ele>2279.1393205188215</ele><time>2026-09-11T23:36:58Z</time></trkpt><trkpt lat="35.980866360917304" lon="138.35881464446194"><ele>2282.205367221497</ele><time>2026-09-11T23:37:16Z</time></trkpt><trkpt lat="35.980813545056854" lon="138.3590419920845"><ele>2287.0772446105257</ele><time>2026-09-11T23:37:32Z</time></trkpt><trkpt lat="35.9806920280402" lon="138.35921677283682"><ele>2286.187172057107</ele><time>2026-09-11T23:37:45Z</time></trkpt><trkpt lat="35.98057409210848" lon="138.3594075785871"><ele>2285.889086146839</ele><time>2026-09-11T23:38:02Z</time></trkpt><trkpt lat="35.98047572034276" lon="138.35960431801317"><ele>2287.9166638245806</ele><time>2026-09-11T23:38:15Z</time></trkpt><trkpt lat="35.980413247805544" lon="138.35982081436111"><ele>2291.2932260436937</ele><time>2026-09-11T23:38:30Z</time></trkpt><trkpt lat="35.98035681580592" lon="138.36003389826075"><ele>2291.391495329328</ele><time>2026-09-11T23:38:44Z</time></trkpt><trkpt lat="35.98035283098114" lon="138.36027172953996"><ele>2293.5487277861685</ele><time>2026-09-11T23:39:01Z</time></trkpt><trkpt lat="35.98039389287136" lon="138.36048975843954"><ele>2299.078088827431</ele><time>2026-09-11T23:39:18Z</time></trkpt><trkpt lat="35.980402089339435" lon="138.36071574713154"><ele>2300.9864003341645</ele><time>2026-09-11T23:39:32Z</time></trkpt><trkpt lat="35.98038071394187" lon="138.36094624962146"><ele>2301.1327511519194</ele><time>2026-09-11T23:39:45Z</time></trkpt><trkpt lat="35.98035441661622" lon="138.3611695227622"><ele>2302.743967762217</ele><time>2026-09-11T23:40:01Z</time></trkpt><trkpt lat="35.9802995608549" lon="138.36138245168152"><ele>2303.9259192887694</ele><time>2026-09-11T23:40:17Z</time></trkpt><trkpt lat="35.98029590231155" lon="138.36160800936045"><ele>2306.2243553968146</ele><time>2026-09-11T23:40:31Z</time></trkpt><trkpt lat="35.98031884717158" lon="138.36183686522673"><ele>2306.78030277323</ele><time>2026-09-11T23:40:46Z</time></trkpt><trkpt lat="35.980286167434095" lon="138.36206910058684"><ele>2308.048561926931</ele><time>2026-09-11T23:41:00Z</time></trkpt><trkpt lat="35.9802103856913" lon="138.362272809339"><ele>2309.6908622859046</ele><time>2026-09-11T23:41:15Z</time></trkpt><trkpt lat="35.98014674159601" lon="138.362485017283"><ele>2313.001426854171</ele><time>2026-09-11T23:41:31Z</time></trkpt><trkpt lat="35.980079611841006" lon="138.36270947447554"><ele>2315.439849198796</ele><time>2026-09-11T23:41:44Z</time></trkpt><trkpt lat="35.9799699747431" lon="138.36290324942615"><ele>2320.620396256447</ele><time>2026-09-11T23:41:56Z</time></trkpt><trkpt lat="35.979832671224706" lon="138.36305033966312"><ele>2323.8575309766456</ele><time>2026-09-11T23:42:10Z</time></trkpt><trkpt lat="35.97971532402013" lon="138.36323011437457"><ele>2325.323285708204</ele><time>2026-09-11T23:42:28Z</time></trkpt><trkpt lat="35.97963616866478" lon="138.36343071187974"><ele>2330.34916334413</ele><time>2026-09-11T23:42:51Z</time></trkpt><trkpt lat="35.97947834407071" lon="138.36355561853648"><ele>2332.9547935165465</ele><time>2026-09-11T23:43:07Z</time></trkpt><trkpt lat="35.9793678791227" lon="138.36373262348363"><ele>2335.748632295057</ele><time>2026-09-11T23:43:22Z</time></trkpt><trkpt lat="35.97924450238417" lon="138.3639012837413"><ele>2340.078242952004</ele><time>2026-09-11T23:43:42Z</time></trkpt><trkpt lat="35.97909269636023" lon="138.36402317232995"><ele>2345.050364665687</ele><time>2026-09-11T23:44:00Z</time></trkpt><trkpt lat="35.978960927981895" lon="138.3641851648197"><ele>2351.1214710362256</ele><time>2026-09-11T23:44:43Z</time></trkpt><trkpt lat="35.97880333918846" lon="138.3643113954549"><ele>2352.3003172483295</ele><time>2026-09-11T23:45:03Z</time></trkpt><trkpt lat="35.9789062175909" lon="138.3655311827071"><ele>2378.371699700132</ele><time>2026-09-11T23:49:43Z</time></trkpt><trkpt lat="35.978972205434495" lon="138.36573911369953"><ele>2381.746334699914</ele><time>2026-09-11T23:50:11Z</time></trkpt><trkpt lat="35.9790375642668" lon="138.36595169027913"><ele>2385.82169875782</ele><time>2026-09-11T23:50:31Z</time></trkpt><trkpt lat="35.97898264270982" lon="138.36617500344875"><ele>2390.200012448244</ele><time>2026-09-11T23:50:56Z</time></trkpt><trkpt lat="35.97898924252134" lon="138.3664106596551"><ele>2392.869065068662</ele><time>2026-09-11T23:51:29Z</time></trkpt><trkpt lat="35.978978862301176" lon="138.36663207166566"><ele>2396.369979065843</ele><time>2026-09-11T23:51:54Z</time></trkpt><trkpt lat="35.97894398951719" lon="138.36685210257394"><ele>2401.753651876934</ele><time>2026-09-11T23:52:19Z</time></trkpt><trkpt lat="35.978810011727376" lon="138.36700584990652"><ele>2409.974507385865</ele><time>2026-09-11T23:52:51Z</time></trkpt><trkpt lat="35.97878973089353" lon="138.36722786633936"><ele>2416.4949424965307</ele><time>2026-09-11T23:53:32Z</time></trkpt><trkpt lat="35.97870556729859" lon="138.36743414896128"><ele>2424.8227197472006</ele><time>2026-09-11T23:54:14Z</time></trkpt><trkpt lat="35.97863328239054" lon="138.3676407345375"><ele>2432.1804177239537</ele><time>2026-09-11T23:54:57Z</time></trkpt><trkpt lat="35.97858681664605" lon="138.36785975352174"><ele>2436.6100520221516</ele><time>2026-09-11T23:55:21Z</time></trkpt><trkpt lat="35.97857150818796" lon="138.36808176907402"><ele>2445.341670099646</ele><time>2026-09-11T23:56:05Z</time></trkpt><trkpt lat="35.97850560582987" lon="138.3682899103123"><ele>2453.5682559059933</ele><time>2026-09-11T23:56:53Z</time></trkpt><trkpt lat="35.97842836369707" lon="138.36849041063462"><ele>2465.553242984228</ele><time>2026-09-11T23:57:56Z</time></trkpt><trkpt lat="35.97833903376838" lon="138.3686852183738"><ele>2478.236537651159</ele><time>2026-09-11T23:59:10Z</time></trkpt><trkpt lat="35.978186858085394" lon="138.36880984195733"><ele>2490.7342880405486</ele><time>2026-09-12T00:00:33Z</time></trkpt><trkpt lat="35.978047511797854" lon="138.3689541345475"><ele>2500.800850293599</ele><time>2026-09-12T00:01:23Z</time></trkpt><trkpt lat="35.977912893626254" lon="138.3691097359522"><ele>2508.6604790147394</ele><time>2026-09-12T00:01:58Z</time></trkpt><trkpt lat="35.97778997805538" lon="138.3692751818639"><ele>2517.307884789072</ele><time>2026-09-12T00:03:02Z</time></trkpt><trkpt lat="35.97772367136786" lon="138.3694814945637"><ele>2535.9511549631134</ele><time>2026-09-12T00:05:03Z</time></trkpt><trkpt lat="35.977614007798785" lon="138.36966162308417"><ele>2544.08460011892</ele><time>2026-09-12T00:07:15Z</time></trkpt><trkpt lat="35.977488660595675" lon="138.36982422191053"><ele>2556.188126835972</ele><time>2026-09-12T00:08:22Z</time></trkpt><trkpt lat="35.97733172930868" lon="138.3699493490322"><ele>2569.6458304412663</ele><time>2026-09-12T00:09:35Z</time></trkpt><trkpt lat="35.977149980339355" lon="138.3699717290677"><ele>2576.5325247291476</ele><time>2026-09-12T00:10:36Z</time></trkpt><trkpt lat="35.977128062515334" lon="138.37019258981496"><ele>2587.83496934548</ele><time>2026-09-12T00:11:59Z</time></trkpt><trkpt lat="35.9771564989015" lon="138.37041318987363"><ele>2602.3858773736283</ele><time>2026-09-12T00:13:16Z</time></trkpt><trkpt lat="35.977197355977815" lon="138.3706433289787"><ele>2624.0073398975655</ele><time>2026-09-12T00:15:39Z</time></trkpt><trkpt lat="35.977118290600615" lon="138.37084265359127"><ele>2644.2462234217674</ele><time>2026-09-12T00:18:48Z</time></trkpt><trkpt lat="35.97700646973637" lon="138.371019623742"><ele>2655.662586237304</ele><time>2026-09-12T00:20:25Z</time></trkpt><trkpt lat="35.97683745663399" lon="138.37110940702493"><ele>2667.240935266018</ele><time>2026-09-12T00:21:41Z</time></trkpt><trkpt lat="35.97671148141774" lon="138.37126899348326"><ele>2678.9238328495994</ele><time>2026-09-12T00:22:45Z</time></trkpt><trkpt lat="35.97658202584504" lon="138.37142732279418"><ele>2693.948118270375</ele><time>2026-09-12T00:24:07Z</time></trkpt><trkpt lat="35.976627646958136" lon="138.37164849499382"><ele>2702.873640133068</ele><time>2026-09-12T00:25:24Z</time></trkpt><trkpt lat="35.976628661459436" lon="138.3718799786562"><ele>2715.2692229636014</ele><time>2026-09-12T00:27:52Z</time></trkpt><trkpt lat="35.97648909972768" lon="138.3720357530602"><ele>2724.5375804295763</ele><time>2026-09-12T00:28:54Z</time></trkpt><trkpt lat="35.976308018889" lon="138.3720614169707"><ele>2723.932564198971</ele><time>2026-09-12T00:29:21Z</time></trkpt><trkpt lat="35.97612016313074" lon="138.37206290622095"><ele>2720.890234729275</ele><time>2026-09-12T00:37:32Z</time></trkpt><trkpt lat="35.97593408588516" lon="138.37208646655642"><ele>2721.032034849748</ele><time>2026-09-12T00:37:53Z</time></trkpt><trkpt lat="35.97574943046968" lon="138.37203802457884"><ele>2720.1125826034695</ele><time>2026-09-12T00:38:09Z</time></trkpt><trkpt lat="35.97556646973073" lon="138.3720054728777"><ele>2724.795754209161</ele><time>2026-09-12T00:38:25Z</time></trkpt><trkpt lat="35.975372796920006" lon="138.37200502006664"><ele>2726.8613248439506</ele><time>2026-09-12T00:38:55Z</time></trkpt><trkpt lat="35.97526622453851" lon="138.3718220586996"><ele>2731.578964339569</ele><time>2026-09-12T00:39:15Z</time></trkpt><trkpt lat="35.975123606172644" lon="138.37168390649063"><ele>2732.694359233603</ele><time>2026-09-12T00:39:28Z</time></trkpt><trkpt lat="35.974938013305604" lon="138.37168788792135"><ele>2731.7200012532994</ele><time>2026-09-12T00:39:45Z</time></trkpt><trkpt lat="35.97479299409814" lon="138.37154453891335"><ele>2733.4924359470606</ele><time>2026-09-12T00:40:04Z</time></trkpt><trkpt lat="35.97463744206359" lon="138.37141101132949"><ele>2740.0143515812233</ele><time>2026-09-12T00:40:23Z</time></trkpt><trkpt lat="35.97446507488559" lon="138.37133339587655"><ele>2744.046703211032</ele><time>2026-09-12T00:40:51Z</time></trkpt><trkpt lat="35.97427820809915" lon="138.37136837376136"><ele>2745.440926745534</ele><time>2026-09-12T00:41:09Z</time></trkpt><trkpt lat="35.97411049802805" lon="138.37127608912"><ele>2750.114332829602</ele><time>2026-09-12T00:41:35Z</time></trkpt><trkpt lat="35.97392896191128" lon="138.37123346428444"><ele>2754.151950816624</ele><time>2026-09-12T00:42:22Z</time></trkpt><trkpt lat="35.97375048687711" lon="138.37118035504602"><ele>2761.292767985724</ele><time>2026-09-12T00:42:50Z</time></trkpt><trkpt lat="35.97357806634792" lon="138.37111520817342"><ele>2769.377766898833</ele><time>2026-09-12T00:43:54Z</time></trkpt><trkpt lat="35.97341656064655" lon="138.3710152014949"><ele>2781.8860342334956</ele><time>2026-09-12T00:45:13Z</time></trkpt><trkpt lat="35.97325511100294" lon="138.37091062793144"><ele>2793.73702584859</ele><time>2026-09-12T00:46:38Z</time></trkpt><trkpt lat="35.9731064664477" lon="138.37077888541234"><ele>2806.7742169378325</ele><time>2026-09-12T00:48:58Z</time></trkpt><trkpt lat="35.97296755452102" lon="138.37063304813066"><ele>2820.361315640621</ele><time>2026-09-12T00:50:37Z</time></trkpt><trkpt lat="35.972833111267676" lon="138.3704849744929"><ele>2834.425898788497</ele><time>2026-09-12T00:52:51Z</time></trkpt><trkpt lat="35.97265737818919" lon="138.37042744610807"><ele>2841.0890623200685</ele><time>2026-09-12T00:53:29Z</time></trkpt><trkpt lat="35.97248217371452" lon="138.37037529621387"><ele>2849.485087119043</ele><time>2026-09-12T00:54:36Z</time></trkpt><trkpt lat="35.97229777568079" lon="138.37036167023507"><ele>2855.740301521495</ele><time>2026-09-12T00:56:40Z</time></trkpt><trkpt lat="35.972109138027115" lon="138.37037637691213"><ele>2863.224286674522</ele><time>2026-09-12T00:57:02Z</time></trkpt><trkpt lat="35.97193012497228" lon="138.3704315596359"><ele>2861.632924213074</ele><time>2026-09-12T00:57:44Z</time></trkpt><trkpt lat="35.97174955193719" lon="138.37040235900872"><ele>2869.740139950067</ele><time>2026-09-12T00:58:33Z</time></trkpt><trkpt lat="35.97160049652547" lon="138.3702745860884"><ele>2880.32703082636</ele><time>2026-09-12T01:00:29Z</time></trkpt><trkpt lat="35.971421727106836" lon="138.37031074962485"><ele>2891.292751483619</ele><time>2026-09-12T01:01:51Z</time></trkpt><trkpt lat="35.971256262215036" lon="138.37040872202243"><ele>2897.4950756570324</ele><time>2026-09-12T01:02:25Z</time></trkpt><trkpt lat="35.971193225393876" lon="138.37065949306074"><ele>2882.6601274898276</ele><time>2026-09-12T01:03:42Z</time></trkpt><trkpt lat="35.97121571113036" lon="138.37043292050325"><ele>2889.9657140430063</ele><time>2026-09-12T01:04:37Z</time></trkpt><trkpt lat="35.97109497104939" lon="138.37025742511457"><ele>2895.15834322758</ele><time>2026-09-12T01:05:23Z</time></trkpt><trkpt lat="35.97092624052175" lon="138.37016589098178"><ele>2898.084022265859</ele><time>2026-09-12T01:06:12Z</time></trkpt><trkpt lat="35.97074499505126" lon="138.37015099385903"><ele>2894.168093129061</ele><time>2026-09-12T01:06:54Z</time></trkpt><trkpt lat="35.97092656170644" lon="138.37015700986743"><ele>2895.723189434968</ele><time>2026-09-12T01:09:29Z</time></trkpt><trkpt lat="35.97108743025302" lon="138.37025859541407"><ele>2895.3188805254176</ele><time>2026-09-12T01:10:26Z</time></trkpt><trkpt lat="35.97124023334673" lon="138.3703800396528"><ele>2897.499102085829</ele><time>2026-09-12T01:13:34Z</time></trkpt><trkpt lat="35.97140788211576" lon="138.37028674484304"><ele>2893.9569276235998</ele><time>2026-09-12T01:13:55Z</time></trkpt><trkpt lat="35.97158938578118" lon="138.37029434674864"><ele>2882.408047154546</ele><time>2026-09-12T01:14:48Z</time></trkpt><trkpt lat="35.97174831903077" lon="138.3703996774004"><ele>2869.9451654702425</ele><time>2026-09-12T01:15:43Z</time></trkpt><trkpt lat="35.97192755984426" lon="138.37042986088946"><ele>2862.1405767081305</ele><time>2026-09-12T01:16:31Z</time></trkpt><trkpt lat="35.97211205639396" lon="138.37038753571971"><ele>2862.893734782003</ele><time>2026-09-12T01:17:48Z</time></trkpt><trkpt lat="35.972295416409146" lon="138.37036639785995"><ele>2858.3317123744637</ele><time>2026-09-12T01:18:05Z</time></trkpt><trkpt lat="35.972475895849925" lon="138.37037799735361"><ele>2850.6806706143543</ele><time>2026-09-12T01:19:17Z</time></trkpt><trkpt lat="35.97266176843496" lon="138.3704220500671"><ele>2841.511078390293</ele><time>2026-09-12T01:19:53Z</time></trkpt><trkpt lat="35.97283646163402" lon="138.37049021577334"><ele>2834.6077999984846</ele><time>2026-09-12T01:20:22Z</time></trkpt><trkpt lat="35.9729751325307" lon="138.37063775865334"><ele>2819.187044915743</ele><time>2026-09-12T01:22:12Z</time></trkpt><trkpt lat="35.97311577969085" lon="138.3707835041991"><ele>2805.613480327651</ele><time>2026-09-12T01:24:23Z</time></trkpt><trkpt lat="35.97326848226482" lon="138.370908781098"><ele>2793.445503213443</ele><time>2026-09-12T01:29:30Z</time></trkpt><trkpt lat="35.97343069419538" lon="138.37101389553294"><ele>2778.828392120078</ele><time>2026-09-12T01:30:28Z</time></trkpt><trkpt lat="35.9735941166829" lon="138.37110985820738"><ele>2769.8005239656195</ele><time>2026-09-12T01:31:20Z</time></trkpt><trkpt lat="35.973773331963436" lon="138.37114940091493"><ele>2759.8114159479737</ele><time>2026-09-12T01:32:14Z</time></trkpt><trkpt lat="35.97395190372158" lon="138.37120038648018"><ele>2754.0271507278085</ele><time>2026-09-12T01:32:41Z</time></trkpt><trkpt lat="35.97412493374625" lon="138.3713043921675"><ele>2748.4237750023603</ele><time>2026-09-12T01:32:53Z</time></trkpt><trkpt lat="35.974305495072336" lon="138.37132501688"><ele>2747.185649984516</ele><time>2026-09-12T01:33:08Z</time></trkpt><trkpt lat="35.9744896010829" lon="138.37132734326536"><ele>2745.2528790850192</ele><time>2026-09-12T01:33:28Z</time></trkpt><trkpt lat="35.974648833220456" lon="138.37143558632303"><ele>2739.048940678127</ele><time>2026-09-12T01:33:52Z</time></trkpt><trkpt lat="35.97480345019958" lon="138.37155118969284"><ele>2733.1898418208584</ele><time>2026-09-12T01:34:16Z</time></trkpt><trkpt lat="35.97494898001094" lon="138.3716976662993"><ele>2731.560470030643</ele><time>2026-09-12T01:34:31Z</time></trkpt><trkpt lat="35.97512953436415" lon="138.37169740949648"><ele>2732.55088424962</ele><time>2026-09-12T01:34:49Z</time></trkpt><trkpt lat="35.97526976933957" lon="138.37184418550996"><ele>2729.9871239187196</ele><time>2026-09-12T01:35:01Z</time></trkpt><trkpt lat="35.975423988735514" lon="138.37198159951691"><ele>2726.659226563759</ele><time>2026-09-12T01:35:23Z</time></trkpt><trkpt lat="35.97561028183624" lon="138.37200243441134"><ele>2723.0217136135325</ele><time>2026-09-12T01:35:38Z</time></trkpt><trkpt lat="35.97578903146101" lon="138.37204519855533"><ele>2719.9724183352664</ele><time>2026-09-12T01:36:09Z</time></trkpt><trkpt lat="35.97597393296126" lon="138.3720566420044"><ele>2721.6984557202086</ele><time>2026-09-12T01:36:24Z</time></trkpt><trkpt lat="35.976167453596524" lon="138.37206928119215"><ele>2720.8263537129387</ele><time>2026-09-12T01:36:48Z</time></trkpt><trkpt lat="35.97635469206735" lon="138.37208550211977"><ele>2725.9788807043806</ele><time>2026-09-12T01:37:08Z</time></trkpt><trkpt lat="35.97652548989892" lon="138.37200764204152"><ele>2724.503586979583</ele><time>2026-09-12T01:37:26Z</time></trkpt><trkpt lat="35.97670392182461" lon="138.372040946339"><ele>2717.3973006326705</ele><time>2026-09-12T01:38:49Z</time></trkpt><trkpt lat="35.976886262657246" lon="138.37208373671663"><ele>2711.493902039714</ele><time>2026-09-12T01:39:07Z</time></trkpt><trkpt lat="35.977064633941325" lon="138.37205073783227"><ele>2711.9451824640855</ele><time>2026-09-12T01:39:27Z</time></trkpt><trkpt lat="35.97725325483002" lon="138.372046308972"><ele>2712.4979820223525</ele><time>2026-09-12T01:39:44Z</time></trkpt><trkpt lat="35.977429596813856" lon="138.37209884876611"><ele>2710.553782700561</ele><time>2026-09-12T01:39:58Z</time></trkpt><trkpt lat="35.977608880006606" lon="138.37216707584838"><ele>2708.0952524440363</ele><time>2026-09-12T01:40:15Z</time></trkpt><trkpt lat="35.97777199347345" lon="138.37226367961114"><ele>2704.5117858424783</ele><time>2026-09-12T01:40:36Z</time></trkpt><trkpt lat="35.977955214746274" lon="138.37222271044527"><ele>2703.2329820822924</ele><time>2026-09-12T01:40:49Z</time></trkpt><trkpt lat="35.97814120244122" lon="138.37226677382176"><ele>2705.491436242126</ele><time>2026-09-12T01:41:13Z</time></trkpt><trkpt lat="35.97832432612856" lon="138.37225659291133"><ele>2704.573652501218</ele><time>2026-09-12T01:41:33Z</time></trkpt><trkpt lat="35.9785069170038" lon="138.37227471475472"><ele>2706.406330693513</ele><time>2026-09-12T01:42:10Z</time></trkpt><trkpt lat="35.97869231594655" lon="138.37232327025208"><ele>2703.136142921634</ele><time>2026-09-12T01:42:34Z</time></trkpt><trkpt lat="35.97887059208927" lon="138.372285378182"><ele>2708.5026319548488</ele><time>2026-09-12T01:42:58Z</time></trkpt><trkpt lat="35.97904257767613" lon="138.3723615193544"><ele>2717.6146972524</ele><time>2026-09-12T01:43:53Z</time></trkpt><trkpt lat="35.97921982452473" lon="138.37242959923907"><ele>2732.5662948070094</ele><time>2026-09-12T01:45:34Z</time></trkpt><trkpt lat="35.97938796072761" lon="138.37250955567242"><ele>2740.0794275784865</ele><time>2026-09-12T01:46:32Z</time></trkpt><trkpt lat="35.97957990925046" lon="138.37250971744587"><ele>2745.5186094557866</ele><time>2026-09-12T01:47:31Z</time></trkpt><trkpt lat="35.97975679129019" lon="138.3725838409235"><ele>2753.5818568551913</ele><time>2026-09-12T01:48:45Z</time></trkpt><trkpt lat="35.97990472761181" lon="138.37271345811516"><ele>2760.2405934743583</ele><time>2026-09-12T01:49:19Z</time></trkpt><trkpt lat="35.98008625916307" lon="138.37273682354623"><ele>2765.326375924051</ele><time>2026-09-12T01:50:35Z</time></trkpt><trkpt lat="35.98011199110971" lon="138.3729582605447"><ele>2764.1777639696375</ele><time>2026-09-12T01:51:06Z</time></trkpt><trkpt lat="35.9802794786065" lon="138.37304023562137"><ele>2780.3452560687438</ele><time>2026-09-12T01:52:48Z</time></trkpt><trkpt lat="35.98044838594261" lon="138.37311908635803"><ele>2792.1094340700656</ele><time>2026-09-12T01:54:52Z</time></trkpt><trkpt lat="35.98060915370871" lon="138.3732236432082"><ele>2798.457143479027</ele><time>2026-09-12T01:56:01Z</time></trkpt><trkpt lat="35.98078924042658" lon="138.37324026154917"><ele>2795.026371902786</ele><time>2026-09-12T01:56:37Z</time></trkpt><trkpt lat="35.98097265204827" lon="138.3732651086521"><ele>2783.374404847622</ele><time>2026-09-12T01:58:37Z</time></trkpt><trkpt lat="35.98114205004671" lon="138.37334765049343"><ele>2783.8317101774737</ele><time>2026-09-12T02:00:21Z</time></trkpt><trkpt lat="35.98116414899574" lon="138.3735676922387"><ele>2786.6898802025244</ele><time>2026-09-12T02:00:45Z</time></trkpt><trkpt lat="35.981313107626896" lon="138.37369797195043"><ele>2788.1747302198783</ele><time>2026-09-12T02:01:05Z</time></trkpt><trkpt lat="35.98141285608709" lon="138.3738923904796"><ele>2802.3293627416715</ele><time>2026-09-12T02:02:43Z</time></trkpt><trkpt lat="35.98159217164068" lon="138.373860347324"><ele>2807.521775778383</ele><time>2026-09-12T02:04:26Z</time></trkpt><trkpt lat="35.9817709123455" lon="138.3738884469339"><ele>2812.181792442687</ele><time>2026-09-12T02:05:57Z</time></trkpt><trkpt lat="35.98195031121141" lon="138.3739224694757"><ele>2819.2020173296332</ele><time>2026-09-12T02:06:46Z</time></trkpt><trkpt lat="35.98210746196341" lon="138.37404912843354"><ele>2813.6359276734293</ele><time>2026-09-12T02:07:06Z</time></trkpt><trkpt lat="35.982289895498155" lon="138.37410374476107"><ele>2805.7371582379565</ele><time>2026-09-12T02:07:38Z</time></trkpt><trkpt lat="35.982468777182824" lon="138.37414227633417"><ele>2805.222316279076</ele><time>2026-09-12T02:07:58Z</time></trkpt><trkpt lat="35.98259163985935" lon="138.37430959682638"><ele>2806.4446289595217</ele><time>2026-09-12T02:08:56Z</time></trkpt><trkpt lat="35.98277727746219" lon="138.37432700467946"><ele>2814.7837764201686</ele><time>2026-09-12T02:09:47Z</time></trkpt><trkpt lat="35.98295940709183" lon="138.37433217181982"><ele>2814.164114771411</ele><time>2026-09-12T02:10:06Z</time></trkpt><trkpt lat="35.98312705611225" lon="138.37441522068508"><ele>2816.4867754671723</ele><time>2026-09-12T02:12:02Z</time></trkpt><trkpt lat="35.98330529003122" lon="138.37437344645375"><ele>2815.7038962300867</ele><time>2026-09-12T02:12:42Z</time></trkpt><trkpt lat="35.98339133768988" lon="138.37416965619744"><ele>2815.6805009627715</ele><time>2026-09-12T02:13:01Z</time></trkpt><trkpt lat="35.98352408238664" lon="138.37401464207392"><ele>2811.1899620648474</ele><time>2026-09-12T02:13:27Z</time></trkpt><trkpt lat="35.98369731983154" lon="138.373951423177"><ele>2803.391877984628</ele><time>2026-09-12T02:14:03Z</time></trkpt><trkpt lat="35.983864656166354" lon="138.37383822225453"><ele>2798.7482066284865</ele><time>2026-09-12T02:14:32Z</time></trkpt><trkpt lat="35.98404955307471" lon="138.373794429316"><ele>2796.639948519878</ele><time>2026-09-12T02:14:48Z</time></trkpt><trkpt lat="35.98422726586986" lon="138.3737579305718"><ele>2802.2254737643525</ele><time>2026-09-12T02:15:10Z</time></trkpt><trkpt lat="35.98429213210552" lon="138.37354681152155"><ele>2810.52019489184</ele><time>2026-09-12T02:16:22Z</time></trkpt><trkpt lat="35.98447782235234" lon="138.3735044296679"><ele>2818.4550185557455</ele><time>2026-09-12T02:17:13Z</time></trkpt><trkpt lat="35.98465784156399" lon="138.37346458144182"><ele>2821.6135969879106</ele><time>2026-09-12T02:17:59Z</time></trkpt><trkpt lat="35.98482583356745" lon="138.37335724912612"><ele>2825.422238640487</ele><time>2026-09-12T02:18:22Z</time></trkpt><trkpt lat="35.985015384601724" lon="138.3733204882562"><ele>2819.8763370951638</ele><time>2026-09-12T02:18:42Z</time></trkpt><trkpt lat="35.985179649254306" lon="138.37320919329997"><ele>2818.5892149237916</ele><time>2026-09-12T02:19:00Z</time></trkpt><trkpt lat="35.9853598369858" lon="138.3731435712982"><ele>2817.255169013515</ele><time>2026-09-12T02:19:15Z</time></trkpt><trkpt lat="35.985540281667234" lon="138.3731084987922"><ele>2823.7352535389364</ele><time>2026-09-12T02:19:50Z</time></trkpt><trkpt lat="35.985717188241125" lon="138.3730209244269"><ele>2827.6044808216393</ele><time>2026-09-12T02:21:21Z</time></trkpt><trkpt lat="35.9858713492413" lon="138.37290513416076"><ele>2826.6062036706135</ele><time>2026-09-12T02:21:36Z</time></trkpt><trkpt lat="35.98605329120185" lon="138.3728537382132"><ele>2827.314219539985</ele><time>2026-09-12T02:21:57Z</time></trkpt><trkpt lat="35.98618449611245" lon="138.37300702905586"><ele>2817.8956065857783</ele><time>2026-09-12T02:23:01Z</time></trkpt><trkpt lat="35.986364105760295" lon="138.37302923869626"><ele>2803.5037660747766</ele><time>2026-09-12T02:26:50Z</time></trkpt><trkpt lat="35.98654595017292" lon="138.3730810910776"><ele>2799.738275582902</ele><time>2026-09-12T02:28:05Z</time></trkpt><trkpt lat="35.98673233597572" lon="138.37308409582948"><ele>2798.861694695428</ele><time>2026-09-12T02:28:43Z</time></trkpt><trkpt lat="35.98692521694618" lon="138.3730880309405"><ele>2796.4260868886486</ele><time>2026-09-12T02:29:01Z</time></trkpt><trkpt lat="35.98711264131759" lon="138.37310373286053"><ele>2790.509439348243</ele><time>2026-09-12T02:29:27Z</time></trkpt><trkpt lat="35.98730060275165" lon="138.37307951201223"><ele>2789.559274274856</ele><time>2026-09-12T02:29:41Z</time></trkpt><trkpt lat="35.98748978135208" lon="138.37308124152875"><ele>2793.2009657276794</ele><time>2026-09-12T02:30:04Z</time></trkpt><trkpt lat="35.98763839838726" lon="138.37321322633335"><ele>2793.194069216028</ele><time>2026-09-12T02:32:04Z</time></trkpt><trkpt lat="35.98781871192152" lon="138.3732585014069"><ele>2792.8140727933496</ele><time>2026-09-12T02:32:21Z</time></trkpt><trkpt lat="35.98798797976579" lon="138.37334252176234"><ele>2793.0283719589934</ele><time>2026-09-12T02:32:41Z</time></trkpt><trkpt lat="35.988144314226744" lon="138.37345683088878"><ele>2795.0231412686408</ele><time>2026-09-12T02:32:59Z</time></trkpt><trkpt lat="35.98830960527911" lon="138.37356338987823"><ele>2799.817168296315</ele><time>2026-09-12T02:33:23Z</time></trkpt><trkpt lat="35.988468808593375" lon="138.3736856625631"><ele>2798.687901677564</ele><time>2026-09-12T02:33:38Z</time></trkpt><trkpt lat="35.988656372922684" lon="138.37372060955755"><ele>2795.1272375453264</ele><time>2026-09-12T02:34:42Z</time></trkpt><trkpt lat="35.988838133786835" lon="138.37375779089174"><ele>2789.840929860249</ele><time>2026-09-12T02:34:56Z</time></trkpt><trkpt lat="35.98901915940902" lon="138.37373483879307"><ele>2785.674962582998</ele><time>2026-09-12T02:35:09Z</time></trkpt><trkpt lat="35.989188273373465" lon="138.3736554812628"><ele>2780.988652017899</ele><time>2026-09-12T02:35:21Z</time></trkpt><trkpt lat="35.989348439935405" lon="138.37354430326357"><ele>2778.669803418219</ele><time>2026-09-12T02:35:33Z</time></trkpt><trkpt lat="35.989493919259864" lon="138.37336921682916"><ele>2774.212885370478</ele><time>2026-09-12T02:35:51Z</time></trkpt><trkpt lat="35.989584537259425" lon="138.37317703034287"><ele>2768.632065705955</ele><time>2026-09-12T02:36:04Z</time></trkpt><trkpt lat="35.9897326637203" lon="138.37303560835335"><ele>2762.1008899873123</ele><time>2026-09-12T02:36:19Z</time></trkpt><trkpt lat="35.98987472239745" lon="138.37287527496474"><ele>2757.1629512673244</ele><time>2026-09-12T02:36:35Z</time></trkpt><trkpt lat="35.9899807391396" lon="138.3726795218018"><ele>2750.365372980945</ele><time>2026-09-12T02:37:00Z</time></trkpt><trkpt lat="35.99015483149424" lon="138.37274268266393"><ele>2743.2695363648236</ele><time>2026-09-12T02:37:23Z</time></trkpt><trkpt lat="35.990291483662425" lon="138.3725845544245"><ele>2733.7496346496046</ele><time>2026-09-12T02:38:05Z</time></trkpt><trkpt lat="35.99046696785621" lon="138.37250216353766"><ele>2727.0899125756696</ele><time>2026-09-12T02:38:30Z</time></trkpt><trkpt lat="35.99064061206536" lon="138.37260226626876"><ele>2718.0120087135583</ele><time>2026-09-12T02:39:00Z</time></trkpt><trkpt lat="35.99082845407886" lon="138.37263044418748"><ele>2712.6933402223513</ele><time>2026-09-12T02:39:22Z</time></trkpt><trkpt lat="35.99100475116404" lon="138.37257871150945"><ele>2705.8136303359643</ele><time>2026-09-12T02:41:13Z</time></trkpt><trkpt lat="35.99118329925864" lon="138.37249234588015"><ele>2698.6861222889274</ele><time>2026-09-12T02:41:35Z</time></trkpt><trkpt lat="35.991326789981095" lon="138.37235349804732"><ele>2693.3261833991855</ele><time>2026-09-12T02:41:51Z</time></trkpt><trkpt lat="35.991489606508075" lon="138.37224118929"><ele>2687.7202056786045</ele><time>2026-09-12T02:42:10Z</time></trkpt><trkpt lat="35.99166593266041" lon="138.37215871108683"><ele>2685.173844559118</ele><time>2026-09-12T02:42:29Z</time></trkpt><trkpt lat="35.9918473893531" lon="138.3720948352175"><ele>2683.3794828644022</ele><time>2026-09-12T02:42:46Z</time></trkpt><trkpt lat="35.99201815331489" lon="138.37200498917764"><ele>2678.70031378977</ele><time>2026-09-12T02:43:01Z</time></trkpt><trkpt lat="35.99219837013249" lon="138.3719456063508"><ele>2677.8282235078514</ele><time>2026-09-12T02:43:17Z</time></trkpt><trkpt lat="35.99238820598359" lon="138.37189836873566"><ele>2675.897279661149</ele><time>2026-09-12T02:43:32Z</time></trkpt><trkpt lat="35.9925761911326" lon="138.3719211490133"><ele>2677.2060118932277</ele><time>2026-09-12T02:43:49Z</time></trkpt><trkpt lat="35.99276488410694" lon="138.37191086491546"><ele>2676.4365591183305</ele><time>2026-09-12T02:44:06Z</time></trkpt><trkpt lat="35.99295204850597" lon="138.37190577962042"><ele>2676.057377158664</ele><time>2026-09-12T02:44:20Z</time></trkpt><trkpt lat="35.9931317783579" lon="138.37188487666063"><ele>2674.1399485412985</ele><time>2026-09-12T02:44:35Z</time></trkpt><trkpt lat="35.99332497603158" lon="138.371904845139"><ele>2668.6806324264035</ele><time>2026-09-12T02:44:56Z</time></trkpt><trkpt lat="35.99351199913668" lon="138.3719094893453"><ele>2667.674526333809</ele><time>2026-09-12T02:45:17Z</time></trkpt><trkpt lat="35.99367768088577" lon="138.37202465961107"><ele>2660.4502810304984</ele><time>2026-09-12T02:45:41Z</time></trkpt><trkpt lat="35.993841739834984" lon="138.37213869266614"><ele>2658.3310486609116</ele><time>2026-09-12T02:46:14Z</time></trkpt><trkpt lat="35.99402784601892" lon="138.37212497994653"><ele>2659.126197522506</ele><time>2026-09-12T02:46:28Z</time></trkpt><trkpt lat="35.99420278596779" lon="138.37206836038212"><ele>2660.398181409575</ele><time>2026-09-12T02:46:42Z</time></trkpt><trkpt lat="35.994369338115966" lon="138.3719794483483"><ele>2662.5835395492613</ele><time>2026-09-12T02:46:56Z</time></trkpt><trkpt lat="35.99453444860503" lon="138.3718748449765"><ele>2664.5989626487717</ele><time>2026-09-12T02:47:11Z</time></trkpt><trkpt lat="35.994724591674796" lon="138.3718560263404"><ele>2667.406936146319</ele><time>2026-09-12T02:47:27Z</time></trkpt><trkpt lat="35.99491496320919" lon="138.37182599625868"><ele>2668.1333732996136</ele><time>2026-09-12T02:47:41Z</time></trkpt><trkpt lat="35.995047700707076" lon="138.37167035101086"><ele>2669.5980878518894</ele><time>2026-09-12T02:47:55Z</time></trkpt><trkpt lat="35.99520476530144" lon="138.37154016084273"><ele>2669.5283352322876</ele><time>2026-09-12T02:48:10Z</time></trkpt><trkpt lat="35.99536900725581" lon="138.37144204480367"><ele>2670.225948771462</ele><time>2026-09-12T02:48:33Z</time></trkpt><trkpt lat="35.99544911283331" lon="138.37122712267646"><ele>2675.041780197993</ele><time>2026-09-12T02:48:56Z</time></trkpt><trkpt lat="35.995578533301725" lon="138.3710639041863"><ele>2674.063717899844</ele><time>2026-09-12T02:49:19Z</time></trkpt><trkpt lat="35.995712735076516" lon="138.37088960936055"><ele>2676.0401650099084</ele><time>2026-09-12T02:49:39Z</time></trkpt><trkpt lat="35.99585745731258" lon="138.37075509246026"><ele>2675.8000507559627</ele><time>2026-09-12T02:49:55Z</time></trkpt><trkpt lat="35.99601687006255" lon="138.37064911017754"><ele>2675.823432656005</ele><time>2026-09-12T02:50:11Z</time></trkpt><trkpt lat="35.9962047923536" lon="138.3705953958139"><ele>2675.0024894904345</ele><time>2026-09-12T02:50:27Z</time></trkpt><trkpt lat="35.99638681738207" lon="138.3705970953012"><ele>2676.5868057785556</ele><time>2026-09-12T02:50:43Z</time></trkpt><trkpt lat="35.99657426160609" lon="138.37056350038972"><ele>2680.61310897395</ele><time>2026-09-12T02:51:03Z</time></trkpt><trkpt lat="35.9967370150407" lon="138.3704625223003"><ele>2683.8673762055114</ele><time>2026-09-12T02:51:32Z</time></trkpt><trkpt lat="35.9969095019585" lon="138.37036730173958"><ele>2690.3652347223833</ele><time>2026-09-12T02:52:42Z</time></trkpt><trkpt lat="35.99708860036541" lon="138.37040124206752"><ele>2697.6664555594325</ele><time>2026-09-12T02:53:14Z</time></trkpt><trkpt lat="35.9972286999065" lon="138.37024911018116"><ele>2702.78818582464</ele><time>2026-09-12T02:54:38Z</time></trkpt><trkpt lat="35.99738801093159" lon="138.3701390328753"><ele>2710.1037845993415</ele><time>2026-09-12T02:55:23Z</time></trkpt><trkpt lat="35.99754870144211" lon="138.37003707843877"><ele>2715.1555806761608</ele><time>2026-09-12T02:55:56Z</time></trkpt><trkpt lat="35.99766208276551" lon="138.36985848317974"><ele>2721.0293647386134</ele><time>2026-09-12T02:56:33Z</time></trkpt><trkpt lat="35.99781920399257" lon="138.36974555013083"><ele>2728.766688988544</ele><time>2026-09-12T02:57:09Z</time></trkpt><trkpt lat="35.99789400311063" lon="138.36954101123854"><ele>2731.0932700010017</ele><time>2026-09-12T02:57:43Z</time></trkpt><trkpt lat="35.99799602454663" lon="138.36935634013585"><ele>2738.918131862767</ele><time>2026-09-12T02:58:20Z</time></trkpt><trkpt lat="35.99805962127973" lon="138.36914606966778"><ele>2743.761412817985</ele><time>2026-09-12T02:58:54Z</time></trkpt><trkpt lat="35.998111891644875" lon="138.36892331695228"><ele>2746.948929485865</ele><time>2026-09-12T02:59:31Z</time></trkpt><trkpt lat="35.99813949751266" lon="138.3686971312273"><ele>2747.9716374119744</ele><time>2026-09-12T02:59:50Z</time></trkpt><trkpt lat="35.99817091206169" lon="138.36847500370624"><ele>2750.389158407226</ele><time>2026-09-12T03:00:11Z</time></trkpt><trkpt lat="35.998210835043174" lon="138.36825165754402"><ele>2753.7292600004002</ele><time>2026-09-12T03:00:30Z</time></trkpt><trkpt lat="35.998259931212246" lon="138.36802653218095"><ele>2753.9356199279428</ele><time>2026-09-12T03:00:49Z</time></trkpt><trkpt lat="35.99834754529676" lon="138.36782189368637"><ele>2757.9310381785035</ele><time>2026-09-12T03:01:08Z</time></trkpt><trkpt lat="35.998387528115124" lon="138.3676040498335"><ele>2759.562068994157</ele><time>2026-09-12T03:01:26Z</time></trkpt><trkpt lat="35.998536310574" lon="138.36747725019842"><ele>2761.207783073187</ele><time>2026-09-12T03:01:40Z</time></trkpt><trkpt lat="35.99869670530137" lon="138.36735286929823"><ele>2758.345441168174</ele><time>2026-09-12T03:01:56Z</time></trkpt><trkpt lat="35.998596943127254" lon="138.36753758342113"><ele>2761.3710793498904</ele><time>2026-09-12T03:02:51Z</time></trkpt><trkpt lat="35.998451471560145" lon="138.36767498868548"><ele>2760.4029512666166</ele><time>2026-09-12T03:03:08Z</time></trkpt><trkpt lat="35.998292034959874" lon="138.36757094826626"><ele>2758.031385728158</ele><time>2026-09-12T03:03:49Z</time></trkpt><trkpt lat="35.99830286332844" lon="138.36734483856395"><ele>2760.230251629837</ele><time>2026-09-12T03:04:09Z</time></trkpt><trkpt lat="35.99834328011699" lon="138.3671561336303"><ele>2759.008941553533</ele><time>2026-09-12T03:39:22Z</time></trkpt><trkpt lat="35.9981668727147" lon="138.3670839017252"><ele>2756.9722713874653</ele><time>2026-09-12T03:40:23Z</time></trkpt><trkpt lat="35.998043084574455" lon="138.36691293050634"><ele>2749.421647893265</ele><time>2026-09-12T03:41:18Z</time></trkpt><trkpt lat="35.99793633185733" lon="138.36673105785175"><ele>2742.1367390826344</ele><time>2026-09-12T03:42:51Z</time></trkpt><trkpt lat="35.997889418094296" lon="138.3665076851354"><ele>2738.075677880086</ele><time>2026-09-12T03:43:40Z</time></trkpt><trkpt lat="35.99777443558328" lon="138.36633630818898"><ele>2730.918646405451</ele><time>2026-09-12T03:44:09Z</time></trkpt><trkpt lat="35.99763448084263" lon="138.36618704787483"><ele>2724.187075795606</ele><time>2026-09-12T03:44:51Z</time></trkpt><trkpt lat="35.99749146163763" lon="138.36604333563608"><ele>2718.1174165531993</ele><time>2026-09-12T03:45:20Z</time></trkpt><trkpt lat="35.99738451438234" lon="138.36586373277987"><ele>2713.942927647382</ele><time>2026-09-12T03:45:39Z</time></trkpt><trkpt lat="35.997222882499464" lon="138.3657645269501"><ele>2705.3927951212972</ele><time>2026-09-12T03:46:40Z</time></trkpt><trkpt lat="35.99709235302666" lon="138.36560255503923"><ele>2701.7420749431476</ele><time>2026-09-12T03:47:04Z</time></trkpt><trkpt lat="35.99699966591308" lon="138.3654042838554"><ele>2696.5923904031515</ele><time>2026-09-12T03:48:01Z</time></trkpt><trkpt lat="35.99692270591801" lon="138.36520258353465"><ele>2684.3790054107085</ele><time>2026-09-12T03:49:15Z</time></trkpt><trkpt lat="35.99678047199783" lon="138.36506369767196"><ele>2676.6437703967094</ele><time>2026-09-12T03:50:05Z</time></trkpt><trkpt lat="35.9966042588543" lon="138.36501678946266"><ele>2667.7062045987695</ele><time>2026-09-12T03:50:49Z</time></trkpt><trkpt lat="35.996548290962764" lon="138.3647959793274"><ele>2661.7080031400546</ele><time>2026-09-12T03:51:39Z</time></trkpt><trkpt lat="35.99639849509235" lon="138.36466975334645"><ele>2656.868595033884</ele><time>2026-09-12T03:52:17Z</time></trkpt><trkpt lat="35.9962180404331" lon="138.36464470906975"><ele>2652.3838927047327</ele><time>2026-09-12T03:52:42Z</time></trkpt><trkpt lat="35.99603489479098" lon="138.3645943433448"><ele>2649.633352741599</ele><time>2026-09-12T03:53:04Z</time></trkpt><trkpt lat="35.99584888223597" lon="138.3645407740873"><ele>2645.5455015674233</ele><time>2026-09-12T03:59:33Z</time></trkpt><trkpt lat="35.99569370651858" lon="138.3644275855614"><ele>2647.3955175289884</ele><time>2026-09-12T03:59:45Z</time></trkpt><trkpt lat="35.99551587314116" lon="138.3644882672045"><ele>2643.7383477361873</ele><time>2026-09-12T04:01:19Z</time></trkpt><trkpt lat="35.995357833134165" lon="138.3643767336083"><ele>2638.2559984540567</ele><time>2026-09-12T04:01:42Z</time></trkpt><trkpt lat="35.995330815752574" lon="138.36459830874003"><ele>2629.8398627145216</ele><time>2026-09-12T04:02:45Z</time></trkpt><trkpt lat="35.99523368727267" lon="138.36478801634368"><ele>2615.424640472047</ele><time>2026-09-12T04:04:15Z</time></trkpt><trkpt lat="35.995327854229664" lon="138.36497864244689"><ele>2610.538473905064</ele><time>2026-09-12T04:04:54Z</time></trkpt><trkpt lat="35.99520810938667" lon="138.36515277330014"><ele>2599.3605469055474</ele><time>2026-09-12T04:06:27Z</time></trkpt><trkpt lat="35.99503725526309" lon="138.36506470708343"><ele>2592.6114968284965</ele><time>2026-09-12T04:07:11Z</time></trkpt><trkpt lat="35.99486710466787" lon="138.3649847549681"><ele>2587.7964662201703</ele><time>2026-09-12T04:08:14Z</time></trkpt><trkpt lat="35.994703806523596" lon="138.364873986401"><ele>2583.1475704340264</ele><time>2026-09-12T04:08:44Z</time></trkpt><trkpt lat="35.99453117730167" lon="138.36480375222345"><ele>2574.1776686506346</ele><time>2026-09-12T04:09:23Z</time></trkpt><trkpt lat="35.99436150295726" lon="138.3647218712411"><ele>2569.423209145665</ele><time>2026-09-12T04:09:54Z</time></trkpt><trkpt lat="35.99420416184139" lon="138.36460695856493"><ele>2567.388956008479</ele><time>2026-09-12T04:10:17Z</time></trkpt><trkpt lat="35.99411201595168" lon="138.3644159175718"><ele>2559.114335881546</ele><time>2026-09-12T04:10:50Z</time></trkpt><trkpt lat="35.9939331247334" lon="138.36446056414403"><ele>2551.270759268664</ele><time>2026-09-12T04:11:35Z</time></trkpt><trkpt lat="35.99387966222623" lon="138.3646744032635"><ele>2548.427754518576</ele><time>2026-09-12T04:11:54Z</time></trkpt><trkpt lat="35.993700585123136" lon="138.36471023503418"><ele>2537.103989372961</ele><time>2026-09-12T04:13:00Z</time></trkpt><trkpt lat="35.9936337428129" lon="138.36449908023067"><ele>2535.255346963182</ele><time>2026-09-12T04:13:50Z</time></trkpt><trkpt lat="35.993566294421996" lon="138.364284266597"><ele>2528.35085346736</ele><time>2026-09-12T04:14:53Z</time></trkpt><trkpt lat="35.99340983872241" lon="138.36416304903912"><ele>2522.226812642999</ele><time>2026-09-12T04:15:22Z</time></trkpt><trkpt lat="35.99325035667134" lon="138.36405955787103"><ele>2513.924156293273</ele><time>2026-09-12T04:16:02Z</time></trkpt><trkpt lat="35.99308844220635" lon="138.3639427127697"><ele>2509.7785594565794</ele><time>2026-09-12T04:16:29Z</time></trkpt><trkpt lat="35.99302000819867" lon="138.36372364707785"><ele>2503.33371373266</ele><time>2026-09-12T04:16:53Z</time></trkpt><trkpt lat="35.99290807959836" lon="138.36390144455612"><ele>2496.927771572955</ele><time>2026-09-12T04:17:46Z</time></trkpt><trkpt lat="35.99276869655579" lon="138.363757038067"><ele>2485.1991255227476</ele><time>2026-09-12T04:19:10Z</time></trkpt><trkpt lat="35.99258952227946" lon="138.36372947870908"><ele>2469.930488396436</ele><time>2026-09-12T04:21:09Z</time></trkpt><trkpt lat="35.99243147249521" lon="138.36384384454487"><ele>2461.414377465844</ele><time>2026-09-12T04:22:34Z</time></trkpt><trkpt lat="35.99236688827323" lon="138.36363528213036"><ele>2454.720074251294</ele><time>2026-09-12T04:23:18Z</time></trkpt><trkpt lat="35.992192904534235" lon="138.36357211851637"><ele>2437.3285573236644</ele><time>2026-09-12T04:24:55Z</time></trkpt><trkpt lat="35.99212848916376" lon="138.363363120328"><ele>2435.3977291993797</ele><time>2026-09-12T04:25:40Z</time></trkpt><trkpt lat="35.99196900632872" lon="138.3632579264833"><ele>2424.356572379358</ele><time>2026-09-12T04:27:24Z</time></trkpt><trkpt lat="35.99195813647928" lon="138.3630363665157"><ele>2416.962411028333</ele><time>2026-09-12T04:27:56Z</time></trkpt><trkpt lat="35.99177724049534" lon="138.3630678499025"><ele>2405.164093144238</ele><time>2026-09-12T04:28:40Z</time></trkpt><trkpt lat="35.99162378374753" lon="138.36293992774833"><ele>2402.2162853349</ele><time>2026-09-12T04:29:18Z</time></trkpt><trkpt lat="35.99146338566397" lon="138.36283858305305"><ele>2399.68588327989</ele><time>2026-09-12T04:29:53Z</time></trkpt><trkpt lat="35.99135669342023" lon="138.36265293290163"><ele>2399.3119304720312</ele><time>2026-09-12T04:30:20Z</time></trkpt><trkpt lat="35.991221417940416" lon="138.3625049320746"><ele>2391.291873898357</ele><time>2026-09-12T04:30:49Z</time></trkpt><trkpt lat="35.991084139784604" lon="138.362347836556"><ele>2393.4786921897903</ele><time>2026-09-12T04:31:10Z</time></trkpt><trkpt lat="35.99094317831061" lon="138.36220152588643"><ele>2389.7629755213857</ele><time>2026-09-12T04:31:41Z</time></trkpt><trkpt lat="35.99081012985039" lon="138.362042666991"><ele>2386.6099636200815</ele><time>2026-09-12T04:32:35Z</time></trkpt><trkpt lat="35.99064707910599" lon="138.36190448195654"><ele>2381.884727734141</ele><time>2026-09-12T04:33:28Z</time></trkpt><trkpt lat="35.99065557320785" lon="138.36167916898162"><ele>2368.661598022096</ele><time>2026-09-12T04:35:18Z</time></trkpt><trkpt lat="35.990668189269186" lon="138.36145742765922"><ele>2354.8886105706915</ele><time>2026-09-12T04:38:08Z</time></trkpt><trkpt lat="35.99048567009051" lon="138.36142766219947"><ele>2341.9924335014075</ele><time>2026-09-12T04:39:16Z</time></trkpt><trkpt lat="35.990319854912975" lon="138.36152595979894"><ele>2340.226419467479</ele><time>2026-09-12T04:39:40Z</time></trkpt><trkpt lat="35.99014828599647" lon="138.3614330358207"><ele>2336.7902204208076</ele><time>2026-09-12T04:40:13Z</time></trkpt><trkpt lat="35.989976933187094" lon="138.36136272628482"><ele>2326.549127646722</ele><time>2026-09-12T04:40:31Z</time></trkpt><trkpt lat="35.98978582943631" lon="138.36132807276493"><ele>2320.7158213416114</ele><time>2026-09-12T04:40:48Z</time></trkpt><trkpt lat="35.989657260152555" lon="138.3611516162935"><ele>2308.3917647916824</ele><time>2026-09-12T04:41:18Z</time></trkpt><trkpt lat="35.98946928037001" lon="138.36111310643287"><ele>2305.815837074071</ele><time>2026-09-12T04:41:35Z</time></trkpt><trkpt lat="35.98936228696628" lon="138.3613032344741"><ele>2300.9071555593982</ele><time>2026-09-12T04:41:49Z</time></trkpt><trkpt lat="35.989212414897835" lon="138.3614396225123"><ele>2295.751266132109</ele><time>2026-09-12T04:42:04Z</time></trkpt><trkpt lat="35.98926357862009" lon="138.36167269968365"><ele>2285.2723445631564</ele><time>2026-09-12T04:42:20Z</time></trkpt><trkpt lat="35.989331186216354" lon="138.3618892489326"><ele>2280.9820845928043</ele><time>2026-09-12T04:42:42Z</time></trkpt><trkpt lat="35.98919929015955" lon="138.36205881659515"><ele>2269.29288829118</ele><time>2026-09-12T04:43:18Z</time></trkpt><trkpt lat="35.98924815368909" lon="138.36227536526397"><ele>2262.5689172670245</ele><time>2026-09-12T04:43:30Z</time></trkpt><trkpt lat="35.989195124901805" lon="138.36249521328563"><ele>2262.3908306211233</ele><time>2026-09-12T04:43:41Z</time></trkpt><trkpt lat="35.989024442562744" lon="138.3626029615383"><ele>2263.389727507718</ele><time>2026-09-12T04:43:53Z</time></trkpt><trkpt lat="35.988847810249744" lon="138.3626800267626"><ele>2257.284044112079</ele><time>2026-09-12T04:44:25Z</time></trkpt><trkpt lat="35.98865451558083" lon="138.3626854178599"><ele>2262.66487347614</ele><time>2026-09-12T04:44:42Z</time></trkpt><trkpt lat="35.98850557333787" lon="138.36255280102165"><ele>2262.653906554915</ele><time>2026-09-12T04:45:06Z</time></trkpt><trkpt lat="35.988324632955184" lon="138.36250273894527"><ele>2264.014479452744</ele><time>2026-09-12T04:45:25Z</time></trkpt><trkpt lat="35.988247793482806" lon="138.36230120134869"><ele>2259.2474550874904</ele><time>2026-09-12T04:45:44Z</time></trkpt><trkpt lat="35.988117697915065" lon="138.36213686997098"><ele>2256.1563184363768</ele><time>2026-09-12T04:46:01Z</time></trkpt><trkpt lat="35.988042584350865" lon="138.3619301798347"><ele>2250.9768430320546</ele><time>2026-09-12T04:46:19Z</time></trkpt><trkpt lat="35.98791420514406" lon="138.3617647726431"><ele>2246.0581711353734</ele><time>2026-09-12T04:46:39Z</time></trkpt><trkpt lat="35.98781715638557" lon="138.36156918161848"><ele>2241.859110718593</ele><time>2026-09-12T04:46:58Z</time></trkpt><trkpt lat="35.9876466055112" lon="138.36148167579105"><ele>2244.3124624313787</ele><time>2026-09-12T04:47:12Z</time></trkpt><trkpt lat="35.98747220549351" lon="138.3614174842456"><ele>2245.0485549001023</ele><time>2026-09-12T04:47:24Z</time></trkpt><trkpt lat="35.987300165413494" lon="138.3613312305281"><ele>2244.3770337207243</ele><time>2026-09-12T04:47:35Z</time></trkpt><trkpt lat="35.98715360695812" lon="138.36119793941714"><ele>2237.4158364608884</ele><time>2026-09-12T04:47:55Z</time></trkpt><trkpt lat="35.98707242330488" lon="138.36099660976814"><ele>2233.6312045501545</ele><time>2026-09-12T04:48:11Z</time></trkpt><trkpt lat="35.987034650012795" lon="138.3607788714577"><ele>2227.80521243345</ele><time>2026-09-12T04:48:28Z</time></trkpt><trkpt lat="35.98699121082014" lon="138.3605632539719"><ele>2224.1157038938254</ele><time>2026-09-12T04:48:45Z</time></trkpt><trkpt lat="35.98690469112206" lon="138.36036426637042"><ele>2216.700464378111</ele><time>2026-09-12T04:49:37Z</time></trkpt><trkpt lat="35.98672948969193" lon="138.3604334874145"><ele>2215.827257156372</ele><time>2026-09-12T04:50:24Z</time></trkpt><trkpt lat="35.98655786587682" lon="138.3605037264412"><ele>2215.0427616955712</ele><time>2026-09-12T04:50:40Z</time></trkpt><trkpt lat="35.986401418241385" lon="138.3603883795174"><ele>2215.5416059913114</ele><time>2026-09-12T04:51:12Z</time></trkpt><trkpt lat="35.986212229287744" lon="138.36038877515358"><ele>2219.3338433066383</ele><time>2026-09-12T04:52:03Z</time></trkpt><trkpt lat="35.98606229397673" lon="138.36051876143048"><ele>2222.7070665042847</ele><time>2026-09-12T04:52:21Z</time></trkpt><trkpt lat="35.985930170597996" lon="138.36067059101285"><ele>2224.8114098561928</ele><time>2026-09-12T04:52:39Z</time></trkpt><trkpt lat="35.98576463871655" lon="138.36077342927243"><ele>2230.2441890379414</ele><time>2026-09-12T04:53:20Z</time></trkpt><trkpt lat="35.98559992606585" lon="138.36087493945735"><ele>2235.448272277601</ele><time>2026-09-12T04:53:41Z</time></trkpt><trkpt lat="35.98542818081284" lon="138.36094858706963"><ele>2237.8424551850185</ele><time>2026-09-12T04:54:02Z</time></trkpt><trkpt lat="35.985311867939075" lon="138.3611204513072"><ele>2240.807629431598</ele><time>2026-09-12T04:54:21Z</time></trkpt><trkpt lat="35.985242170372004" lon="138.36132843902283"><ele>2244.6534029757604</ele><time>2026-09-12T04:54:56Z</time></trkpt><trkpt lat="35.98517498949437" lon="138.3615396329027"><ele>2249.8326081996784</ele><time>2026-09-12T04:55:26Z</time></trkpt><trkpt lat="35.98505630213337" lon="138.361717353561"><ele>2253.1164966197684</ele><time>2026-09-12T04:55:43Z</time></trkpt><trkpt lat="35.984953106084184" lon="138.36190599580448"><ele>2257.739293616265</ele><time>2026-09-12T04:56:06Z</time></trkpt><trkpt lat="35.984866390049774" lon="138.36210546814777"><ele>2257.955736376345</ele><time>2026-09-12T04:56:25Z</time></trkpt><trkpt lat="35.984739773526506" lon="138.36228108223327"><ele>2262.5589104685932</ele><time>2026-09-12T04:56:45Z</time></trkpt><trkpt lat="35.98459307980274" lon="138.36240990919976"><ele>2267.6766821853817</ele><time>2026-09-12T04:57:03Z</time></trkpt><trkpt lat="35.984445340852155" lon="138.36254455152823"><ele>2266.7872868468985</ele><time>2026-09-12T04:57:21Z</time></trkpt><trkpt lat="35.984277132818136" lon="138.36264457564548"><ele>2272.0954970186576</ele><time>2026-09-12T04:57:39Z</time></trkpt><trkpt lat="35.98411022950358" lon="138.3627414428374"><ele>2278.6217377055436</ele><time>2026-09-12T04:58:20Z</time></trkpt><trkpt lat="35.983937265980614" lon="138.36282033099909"><ele>2282.039030076936</ele><time>2026-09-12T04:58:39Z</time></trkpt><trkpt lat="35.983766687809165" lon="138.36292555551924"><ele>2285.7470484059304</ele><time>2026-09-12T04:58:57Z</time></trkpt><trkpt lat="35.98365657309619" lon="138.3631114550963"><ele>2289.3238908378407</ele><time>2026-09-12T04:59:13Z</time></trkpt><trkpt lat="35.983511010079496" lon="138.36325966854335"><ele>2293.6778200678527</ele><time>2026-09-12T04:59:30Z</time></trkpt><trkpt lat="35.983390127880476" lon="138.363426128446"><ele>2299.289533816278</ele><time>2026-09-12T04:59:47Z</time></trkpt><trkpt lat="35.98326800757169" lon="138.36360162977832"><ele>2306.7726289397106</ele><time>2026-09-12T05:00:13Z</time></trkpt><trkpt lat="35.98321165400946" lon="138.36338954549345"><ele>2319.0845193406567</ele><time>2026-09-12T05:01:06Z</time></trkpt><trkpt lat="35.98304608369117" lon="138.36348985456394"><ele>2322.814086364582</ele><time>2026-09-12T05:01:45Z</time></trkpt><trkpt lat="35.98294504555687" lon="138.36329603016443"><ele>2338.679059436545</ele><time>2026-09-12T05:02:54Z</time></trkpt><trkpt lat="35.98277701874168" lon="138.36338636381222"><ele>2347.665285374038</ele><time>2026-09-12T05:03:20Z</time></trkpt><trkpt lat="35.982621237911765" lon="138.36351516743602"><ele>2350.7497000545263</ele><time>2026-09-12T05:03:45Z</time></trkpt><trkpt lat="35.982460583701624" lon="138.3636185217613"><ele>2354.217124362476</ele><time>2026-09-12T05:04:05Z</time></trkpt><trkpt lat="35.98230743209336" lon="138.3637370674292"><ele>2362.5496021462604</ele><time>2026-09-12T05:04:26Z</time></trkpt><trkpt lat="35.982153907464195" lon="138.3638826000153"><ele>2366.40936970897</ele><time>2026-09-12T05:05:06Z</time></trkpt><trkpt lat="35.98198852500285" lon="138.36398606867917"><ele>2370.1061879564077</ele><time>2026-09-12T05:05:23Z</time></trkpt><trkpt lat="35.981817715510765" lon="138.36406493742737"><ele>2372.7433488108218</ele><time>2026-09-12T05:05:41Z</time></trkpt><trkpt lat="35.98161980165625" lon="138.36411343988402"><ele>2371.489717400633</ele><time>2026-09-12T05:05:57Z</time></trkpt><trkpt lat="35.98146345673944" lon="138.36422680221781"><ele>2366.4722761576995</ele><time>2026-09-12T05:06:10Z</time></trkpt><trkpt lat="35.9813050642632" lon="138.36435654923423"><ele>2362.68343516998</ele><time>2026-09-12T05:06:24Z</time></trkpt><trkpt lat="35.98117206226893" lon="138.36451296685286"><ele>2358.6573508623987</ele><time>2026-09-12T05:06:38Z</time></trkpt><trkpt lat="35.981054929936434" lon="138.36469359560613"><ele>2356.9666289594024</ele><time>2026-09-12T05:06:51Z</time></trkpt><trkpt lat="35.98092969071073" lon="138.3648679562025"><ele>2356.6781366663054</ele><time>2026-09-12T05:07:04Z</time></trkpt><trkpt lat="35.980746028168895" lon="138.3649001254593"><ele>2356.8820023201406</ele><time>2026-09-12T05:07:18Z</time></trkpt><trkpt lat="35.98057205052122" lon="138.3649676789233"><ele>2352.12465674337</ele><time>2026-09-12T05:07:35Z</time></trkpt><trkpt lat="35.98038111435212" lon="138.3649722318106"><ele>2355.780066102743</ele><time>2026-09-12T05:07:48Z</time></trkpt><trkpt lat="35.98019229335735" lon="138.36497747958146"><ele>2356.4861206812784</ele><time>2026-09-12T05:08:01Z</time></trkpt><trkpt lat="35.98000730057138" lon="138.36494874752674"><ele>2360.663466340862</ele><time>2026-09-12T05:08:14Z</time></trkpt><trkpt lat="35.97981664160042" lon="138.36495624364008"><ele>2358.2836251333356</ele><time>2026-09-12T05:08:26Z</time></trkpt><trkpt lat="35.9796341786328" lon="138.3649021945232"><ele>2354.4554223269224</ele><time>2026-09-12T05:08:38Z</time></trkpt><trkpt lat="35.97944770595613" lon="138.36488841512104"><ele>2354.283936422318</ele><time>2026-09-12T05:08:51Z</time></trkpt><trkpt lat="35.97926892120269" lon="138.36482204879692"><ele>2354.0006561381742</ele><time>2026-09-12T05:09:09Z</time></trkpt><trkpt lat="35.979089725215616" lon="138.36476163291394"><ele>2352.072119258344</ele><time>2026-09-12T05:09:24Z</time></trkpt><trkpt lat="35.97890603735715" lon="138.3647234163775"><ele>2351.402760660276</ele><time>2026-09-12T05:09:51Z</time></trkpt><trkpt lat="35.978775504526304" lon="138.36456910522918"><ele>2350.9437395771965</ele><time>2026-09-12T05:10:07Z</time></trkpt><trkpt lat="35.978822338676295" lon="138.36451956599464"><ele>2352.191675236001</ele><time>2026-09-12T05:39:24Z</time></trkpt><trkpt lat="35.97882233872473" lon="138.36451956602815"><ele>2352.3787874491377</ele><time>2026-09-12T05:39:29Z</time></trkpt></trkseg></trk></gpx>