<?xml version='1.0' encoding='UTF-8'?><gpx creator="YAMAP - https://yamap.com" xsi:schemaLocation="http://www.topografix.com/GPX/1/1 http://www.topografix.com/GPX/1/1/gpx.xsd" version="1.1" xmlns="http://www.topografix.com/GPX/1/1" xmlns:xsi="http://www.w3.org/2001/XMLSchema-instance"><metadata><bounds maxlat="35.41854122944033" maxlon="136.40257948949125" minlat="35.394419086879694" minlon="136.38372933504766"/></metadata><trk><name>徳蔵山</name><number>1</number><trkseg><trkpt lat="35.39453229404557" lon="136.38372933504766"><ele>227.31047821044922</ele><time>2026-01-09T23:07:49Z</time></trkpt><trkpt lat="35.39445842516013" lon="136.38395628730115"><ele>246.59425099380314</ele><time>2026-01-09T23:08:34Z</time></trkpt><trkpt lat="35.394419086879694" lon="136.38402088319492"><ele>249.2081121476367</ele><time>2026-01-09T23:08:43Z</time></trkpt><trkpt lat="35.394603804284486" lon="136.3840647536584"><ele>260.3070121090859</ele><time>2026-01-09T23:09:00Z</time></trkpt><trkpt lat="35.394795003631366" lon="136.3840160268746"><ele>267.56375292968005</ele><time>2026-01-09T23:09:20Z</time></trkpt><trkpt lat="35.39498199639307" lon="136.3840315547301"><ele>266.66456837486476</ele><time>2026-01-09T23:09:38Z</time></trkpt><trkpt lat="35.39516633397745" lon="136.38404507681463"><ele>266.79774871934205</ele><time>2026-01-09T23:09:59Z</time></trkpt><trkpt lat="35.395315115184644" lon="136.38416936579625"><ele>279.3004336133599</ele><time>2026-01-09T23:10:17Z</time></trkpt><trkpt lat="35.39549955805753" lon="136.38422588329507"><ele>285.3255237219855</ele><time>2026-01-09T23:10:37Z</time></trkpt><trkpt lat="35.39564499055304" lon="136.38435861318118"><ele>285.65307504776865</ele><time>2026-01-09T23:11:06Z</time></trkpt><trkpt lat="35.39569515345145" lon="136.38458154781384"><ele>296.95976215414703</ele><time>2026-01-09T23:11:31Z</time></trkpt><trkpt lat="35.395525069760794" lon="136.38450652263492"><ele>296.3264429215342</ele><time>2026-01-09T23:11:48Z</time></trkpt><trkpt lat="35.39533063667092" lon="136.3844786872976"><ele>295.53990395739675</ele><time>2026-01-09T23:12:10Z</time></trkpt><trkpt lat="35.39548770282705" lon="136.38458960306073"><ele>290.75078023038805</ele><time>2026-01-09T23:12:47Z</time></trkpt><trkpt lat="35.395306609151085" lon="136.3846170962987"><ele>302.5000386014581</ele><time>2026-01-09T23:13:09Z</time></trkpt><trkpt lat="35.39531162437953" lon="136.3848400160717"><ele>306.898292995058</ele><time>2026-01-09T23:13:38Z</time></trkpt><trkpt lat="35.395425666856916" lon="136.38501488721755"><ele>310.5777597092092</ele><time>2026-01-09T23:13:58Z</time></trkpt><trkpt lat="35.39536673828474" lon="136.38522568050416"><ele>324.2919557765126</ele><time>2026-01-09T23:14:38Z</time></trkpt><trkpt lat="35.39520353496173" lon="136.3851313536802"><ele>321.50867711007595</ele><time>2026-01-09T23:14:59Z</time></trkpt><trkpt lat="35.39504424797913" lon="136.38524291469233"><ele>322.6920998012647</ele><time>2026-01-09T23:15:28Z</time></trkpt><trkpt lat="35.39518188269955" lon="136.38538787261507"><ele>333.24489200208336</ele><time>2026-01-09T23:15:49Z</time></trkpt><trkpt lat="35.395321873516245" lon="136.3855367608037"><ele>339.2344209551811</ele><time>2026-01-09T23:16:26Z</time></trkpt><trkpt lat="35.39512117372808" lon="136.38550661140042"><ele>326.0800624862313</ele><time>2026-01-09T23:16:41Z</time></trkpt><trkpt lat="35.394924685797115" lon="136.38549622073114"><ele>334.2442906368524</ele><time>2026-01-09T23:16:59Z</time></trkpt><trkpt lat="35.394747019289326" lon="136.3855429378608"><ele>341.9537171628326</ele><time>2026-01-09T23:17:20Z</time></trkpt><trkpt lat="35.39465808737469" lon="136.3857417760827"><ele>339.670483131893</ele><time>2026-01-09T23:17:37Z</time></trkpt><trkpt lat="35.39482089682062" lon="136.38586329711092"><ele>341.21250612847507</ele><time>2026-01-09T23:18:07Z</time></trkpt><trkpt lat="35.39499243944176" lon="136.38593631949382"><ele>341.9019254008308</ele><time>2026-01-09T23:18:32Z</time></trkpt><trkpt lat="35.39513577368511" lon="136.38609965080818"><ele>352.40677654370666</ele><time>2026-01-09T23:18:55Z</time></trkpt><trkpt lat="35.39530840010508" lon="136.38621844271256"><ele>365.67842620797455</ele><time>2026-01-09T23:19:22Z</time></trkpt><trkpt lat="35.39547880647859" lon="136.38631058569112"><ele>363.65416687354445</ele><time>2026-01-09T23:19:44Z</time></trkpt><trkpt lat="35.39562339557387" lon="136.38645059623428"><ele>373.3941642558202</ele><time>2026-01-09T23:20:24Z</time></trkpt><trkpt lat="35.39577166259504" lon="136.38657809918442"><ele>371.08867874369025</ele><time>2026-01-09T23:20:41Z</time></trkpt><trkpt lat="35.39586575106367" lon="136.38678341065025"><ele>380.3034922052175</ele><time>2026-01-09T23:21:05Z</time></trkpt><trkpt lat="35.39584010561223" lon="136.38700210328082"><ele>389.0918474569917</ele><time>2026-01-09T23:21:25Z</time></trkpt><trkpt lat="35.395675756244025" lon="136.38687447653578"><ele>385.8244873182848</ele><time>2026-01-09T23:21:57Z</time></trkpt><trkpt lat="35.395497130792585" lon="136.38692046279155"><ele>391.6015745475888</ele><time>2026-01-09T23:22:22Z</time></trkpt><trkpt lat="35.39532414122404" lon="136.38701407894533"><ele>394.2781780799851</ele><time>2026-01-09T23:22:48Z</time></trkpt><trkpt lat="35.39514000366013" lon="136.38704228509712"><ele>399.1051088012755</ele><time>2026-01-09T23:23:11Z</time></trkpt><trkpt lat="35.3950307793817" lon="136.38723136886628"><ele>397.52308051101863</ele><time>2026-01-09T23:23:32Z</time></trkpt><trkpt lat="35.39491963191018" lon="136.38740487020172"><ele>402.501182179898</ele><time>2026-01-09T23:24:03Z</time></trkpt><trkpt lat="35.39499469151678" lon="136.3876085711018"><ele>410.4810408093035</ele><time>2026-01-09T23:24:31Z</time></trkpt><trkpt lat="35.39498009887885" lon="136.387829332041"><ele>410.7675253096968</ele><time>2026-01-09T23:25:04Z</time></trkpt><trkpt lat="35.39501465668383" lon="136.38804886365617"><ele>415.71875640098006</ele><time>2026-01-09T23:25:31Z</time></trkpt><trkpt lat="35.3951139013515" lon="136.38824525160211"><ele>416.45808290410787</ele><time>2026-01-09T23:25:49Z</time></trkpt><trkpt lat="35.39520215891236" lon="136.38845460629997"><ele>430.20391555689275</ele><time>2026-01-09T23:27:05Z</time></trkpt><trkpt lat="35.3952834412627" lon="136.38865385267675"><ele>430.2897676303983</ele><time>2026-01-09T23:27:38Z</time></trkpt><trkpt lat="35.395367049420926" lon="136.38885427268022"><ele>432.51238557044417</ele><time>2026-01-09T23:28:03Z</time></trkpt><trkpt lat="35.39540231967096" lon="136.3890730009665"><ele>435.62765960767865</ele><time>2026-01-09T23:28:33Z</time></trkpt><trkpt lat="35.39547486640574" lon="136.38930049316656"><ele>435.93989540450275</ele><time>2026-01-09T23:28:58Z</time></trkpt><trkpt lat="35.39553855969082" lon="136.38952406998283"><ele>444.6879821019247</ele><time>2026-01-09T23:29:34Z</time></trkpt><trkpt lat="35.39564775621318" lon="136.38970767931195"><ele>450.4985061567277</ele><time>2026-01-09T23:30:01Z</time></trkpt><trkpt lat="35.39579910960263" lon="136.38983172216263"><ele>453.35631714668125</ele><time>2026-01-09T23:30:28Z</time></trkpt><trkpt lat="35.39595066144769" lon="136.38995104550546"><ele>465.98247689567506</ele><time>2026-01-09T23:30:59Z</time></trkpt><trkpt lat="35.39609210241231" lon="136.39009121487487"><ele>468.3234645947814</ele><time>2026-01-09T23:31:44Z</time></trkpt><trkpt lat="35.39622906350611" lon="136.39024765662063"><ele>476.630487552844</ele><time>2026-01-09T23:32:20Z</time></trkpt><trkpt lat="35.39638679034716" lon="136.3903652745097"><ele>483.6942895743996</ele><time>2026-01-09T23:33:00Z</time></trkpt><trkpt lat="35.3964577320535" lon="136.39057205222363"><ele>484.8550855331123</ele><time>2026-01-09T23:33:29Z</time></trkpt><trkpt lat="35.396631664619754" lon="136.39064978474994"><ele>487.68665540684015</ele><time>2026-01-09T23:34:08Z</time></trkpt><trkpt lat="35.396722082719734" lon="136.39084385333803"><ele>498.4186744065955</ele><time>2026-01-09T23:34:37Z</time></trkpt><trkpt lat="35.396645491712334" lon="136.3910501375984"><ele>500.8507741494104</ele><time>2026-01-09T23:34:56Z</time></trkpt><trkpt lat="35.39661554727474" lon="136.39126988347965"><ele>503.27591791190207</ele><time>2026-01-09T23:35:14Z</time></trkpt><trkpt lat="35.39675035847373" lon="136.39143832690974"><ele>510.09584656730294</ele><time>2026-01-09T23:35:42Z</time></trkpt><trkpt lat="35.39686423220757" lon="136.39161479222744"><ele>509.3824353357777</ele><time>2026-01-09T23:36:06Z</time></trkpt><trkpt lat="35.39694389377055" lon="136.39183858262342"><ele>517.9455845877528</ele><time>2026-01-09T23:36:34Z</time></trkpt><trkpt lat="35.39710867512216" lon="136.3919462325198"><ele>519.0812916988507</ele><time>2026-01-09T23:37:03Z</time></trkpt><trkpt lat="35.39720592497144" lon="136.39213518814287"><ele>530.2470214562491</ele><time>2026-01-09T23:37:37Z</time></trkpt><trkpt lat="35.397347589299336" lon="136.3922927008607"><ele>532.1390194129199</ele><time>2026-01-09T23:38:08Z</time></trkpt><trkpt lat="35.39743844729784" lon="136.39248636689996"><ele>535.5464670592919</ele><time>2026-01-09T23:38:34Z</time></trkpt><trkpt lat="35.397573445210796" lon="136.39263917540546"><ele>541.1357538932934</ele><time>2026-01-09T23:39:02Z</time></trkpt><trkpt lat="35.39770982327968" lon="136.39279754821513"><ele>542.1092551248148</ele><time>2026-01-09T23:39:47Z</time></trkpt><trkpt lat="35.3978326916814" lon="136.39295872298624"><ele>546.9753549601883</ele><time>2026-01-09T23:40:13Z</time></trkpt><trkpt lat="35.3978606924661" lon="136.39318089479912"><ele>546.8964460752904</ele><time>2026-01-09T23:40:34Z</time></trkpt><trkpt lat="35.39800744944079" lon="136.39332818759297"><ele>556.19952581916</ele><time>2026-01-09T23:41:04Z</time></trkpt><trkpt lat="35.398178523228815" lon="136.39340866606696"><ele>564.7470910744742</ele><time>2026-01-09T23:41:45Z</time></trkpt><trkpt lat="35.39835900544137" lon="136.39347369543026"><ele>568.162725054659</ele><time>2026-01-09T23:42:06Z</time></trkpt><trkpt lat="35.39845883603059" lon="136.3936649959869"><ele>573.8515255432576</ele><time>2026-01-09T23:42:44Z</time></trkpt><trkpt lat="35.39844536931828" lon="136.39388508881484"><ele>578.4498438760638</ele><time>2026-01-09T23:43:09Z</time></trkpt><trkpt lat="35.39845851750887" lon="136.39410908277927"><ele>576.6491858921945</ele><time>2026-01-09T23:43:32Z</time></trkpt><trkpt lat="35.39862671790704" lon="136.3941913730539"><ele>590.5278287548572</ele><time>2026-01-09T23:44:30Z</time></trkpt><trkpt lat="35.39878700085005" lon="136.39407234766315"><ele>595.3808308113366</ele><time>2026-01-09T23:45:05Z</time></trkpt><trkpt lat="35.3989107923369" lon="136.39390254518736"><ele>591.1093760160729</ele><time>2026-01-09T23:45:28Z</time></trkpt><trkpt lat="35.39897965427934" lon="136.39369499754122"><ele>599.9046965083107</ele><time>2026-01-09T23:45:46Z</time></trkpt><trkpt lat="35.39912185367779" lon="136.393545080006"><ele>601.2853684984148</ele><time>2026-01-09T23:46:08Z</time></trkpt><trkpt lat="35.399256004277504" lon="136.39339433114878"><ele>606.05043412745</ele><time>2026-01-09T23:46:34Z</time></trkpt><trkpt lat="35.399359411345536" lon="136.39320762324863"><ele>611.6101433159783</ele><time>2026-01-09T23:47:00Z</time></trkpt><trkpt lat="35.39953308740764" lon="136.393122282262"><ele>611.3377136345953</ele><time>2026-01-09T23:47:25Z</time></trkpt><trkpt lat="35.39970855537566" lon="136.39317326589912"><ele>617.3097389787436</ele><time>2026-01-09T23:47:54Z</time></trkpt><trkpt lat="35.39990163507627" lon="136.3932028209925"><ele>616.1286939941347</ele><time>2026-01-09T23:48:31Z</time></trkpt><trkpt lat="35.400081743201035" lon="136.39323511067576"><ele>625.1058331737295</ele><time>2026-01-09T23:48:57Z</time></trkpt><trkpt lat="35.40026328687214" lon="136.39325718915342"><ele>632.1476321490481</ele><time>2026-01-09T23:49:26Z</time></trkpt><trkpt lat="35.4001812885661" lon="136.3934535489403"><ele>640.4004057860002</ele><time>2026-01-09T23:49:59Z</time></trkpt><trkpt lat="35.400353816305426" lon="136.39354808747595"><ele>640.6245076078922</ele><time>2026-01-09T23:50:19Z</time></trkpt><trkpt lat="35.40054011474547" lon="136.39356645510833"><ele>647.0346424328163</ele><time>2026-01-09T23:50:48Z</time></trkpt><trkpt lat="35.40070794259007" lon="136.39366778850294"><ele>649.7634458420798</ele><time>2026-01-09T23:51:06Z</time></trkpt><trkpt lat="35.40073792971797" lon="136.39389359050315"><ele>661.5537653034553</ele><time>2026-01-09T23:51:32Z</time></trkpt><trkpt lat="35.40068367185401" lon="136.39410611461204"><ele>669.7680031964555</ele><time>2026-01-09T23:51:55Z</time></trkpt><trkpt lat="35.40077139663188" lon="136.39430146117385"><ele>667.9443618198857</ele><time>2026-01-09T23:52:30Z</time></trkpt><trkpt lat="35.400746714637364" lon="136.39452111059745"><ele>676.5287535255775</ele><time>2026-01-09T23:52:55Z</time></trkpt><trkpt lat="35.400765679720664" lon="136.39475922269764"><ele>684.6686432249844</ele><time>2026-01-09T23:53:29Z</time></trkpt><trkpt lat="35.400880554612016" lon="136.39494559538653"><ele>684.258466700092</ele><time>2026-01-09T23:53:57Z</time></trkpt><trkpt lat="35.40105231109025" lon="136.39503253289917"><ele>688.4819915834814</ele><time>2026-01-09T23:54:23Z</time></trkpt><trkpt lat="35.401230372915265" lon="136.39509898433556"><ele>688.7486370289698</ele><time>2026-01-09T23:54:43Z</time></trkpt><trkpt lat="35.401418966211224" lon="136.39514024606493"><ele>693.6184083372355</ele><time>2026-01-09T23:55:03Z</time></trkpt><trkpt lat="35.401579716510746" lon="136.39525760569785"><ele>696.5423308387399</ele><time>2026-01-09T23:55:18Z</time></trkpt><trkpt lat="35.40166657184255" lon="136.39545808826819"><ele>698.4939136030152</ele><time>2026-01-09T23:55:36Z</time></trkpt><trkpt lat="35.4017028395582" lon="136.39568859998434"><ele>706.4333895547315</ele><time>2026-01-09T23:55:52Z</time></trkpt><trkpt lat="35.40170738063697" lon="136.39591099432235"><ele>704.6712638018653</ele><time>2026-01-09T23:56:12Z</time></trkpt><trkpt lat="35.40171340327845" lon="136.39614569763734"><ele>707.5426281979308</ele><time>2026-01-09T23:56:35Z</time></trkpt><trkpt lat="35.40175650370246" lon="136.3963605788103"><ele>716.1153673380613</ele><time>2026-01-09T23:57:01Z</time></trkpt><trkpt lat="35.40183578171589" lon="136.39656337817127"><ele>724.0983754498884</ele><time>2026-01-09T23:57:26Z</time></trkpt><trkpt lat="35.40202227769553" lon="136.3965662245496"><ele>723.2089938614517</ele><time>2026-01-09T23:57:52Z</time></trkpt><trkpt lat="35.4021972601114" lon="136.3966206450988"><ele>727.4136642301455</ele><time>2026-01-09T23:58:17Z</time></trkpt><trkpt lat="35.402383915011754" lon="136.39666338901864"><ele>730.3853307617828</ele><time>2026-01-09T23:58:37Z</time></trkpt><trkpt lat="35.402572641948986" lon="136.39667938285655"><ele>737.3922748342156</ele><time>2026-01-09T23:59:00Z</time></trkpt><trkpt lat="35.40275469515202" lon="136.39662695665788"><ele>735.7204037215561</ele><time>2026-01-09T23:59:25Z</time></trkpt><trkpt lat="35.402930498124476" lon="136.39669435627414"><ele>736.17608567141</ele><time>2026-01-09T23:59:44Z</time></trkpt><trkpt lat="35.403102257521844" lon="136.39661366286416"><ele>738.4253196725622</ele><time>2026-01-10T00:00:02Z</time></trkpt><trkpt lat="35.403284451425336" lon="136.3965732059196"><ele>739.7876510033384</ele><time>2026-01-10T00:00:22Z</time></trkpt><trkpt lat="35.40343843221563" lon="136.39645685433982"><ele>740.8199610281736</ele><time>2026-01-10T00:00:46Z</time></trkpt><trkpt lat="35.40360796169014" lon="136.3963562104219"><ele>745.3222481748089</ele><time>2026-01-10T00:01:05Z</time></trkpt><trkpt lat="35.40378225858077" lon="136.39627936679472"><ele>747.1453695306554</ele><time>2026-01-10T00:01:27Z</time></trkpt><trkpt lat="35.40396591251329" lon="136.39623332026434"><ele>747.3595920307562</ele><time>2026-01-10T00:01:45Z</time></trkpt><trkpt lat="35.404152395466504" lon="136.39621187293363"><ele>746.8480831254274</ele><time>2026-01-10T00:02:05Z</time></trkpt><trkpt lat="35.40433425285246" lon="136.39614220915183"><ele>749.6268692538142</ele><time>2026-01-10T00:02:26Z</time></trkpt><trkpt lat="35.40451874650556" lon="136.3961403432726"><ele>755.0955263422802</ele><time>2026-01-10T00:02:47Z</time></trkpt><trkpt lat="35.404693690798155" lon="136.39608395747752"><ele>757.2683950774372</ele><time>2026-01-10T00:03:03Z</time></trkpt><trkpt lat="35.40486435178058" lon="136.39599385396167"><ele>756.9955432834104</ele><time>2026-01-10T00:03:21Z</time></trkpt><trkpt lat="35.40505303744892" lon="136.39597979547474"><ele>757.7709152363241</ele><time>2026-01-10T00:03:47Z</time></trkpt><trkpt lat="35.40523094220194" lon="136.39593110382722"><ele>761.2905424879864</ele><time>2026-01-10T00:04:03Z</time></trkpt><trkpt lat="35.40540920196172" lon="136.395997256035"><ele>762.0384649401531</ele><time>2026-01-10T00:04:23Z</time></trkpt><trkpt lat="35.40558454965893" lon="136.3960833048385"><ele>765.8084017792717</ele><time>2026-01-10T00:04:48Z</time></trkpt><trkpt lat="35.405743771185186" lon="136.3962115247116"><ele>768.0689768847078</ele><time>2026-01-10T00:05:08Z</time></trkpt><trkpt lat="35.40592291723627" lon="136.39628498511794"><ele>769.8728165980428</ele><time>2026-01-10T00:05:30Z</time></trkpt><trkpt lat="35.4060910066305" lon="136.39638150707722"><ele>768.7378931781277</ele><time>2026-01-10T00:05:50Z</time></trkpt><trkpt lat="35.406270532490915" lon="136.3964151817077"><ele>768.7385904788971</ele><time>2026-01-10T00:06:08Z</time></trkpt><trkpt lat="35.406457119121775" lon="136.3964647530787"><ele>767.9022259153426</ele><time>2026-01-10T00:06:30Z</time></trkpt><trkpt lat="35.40663755394493" lon="136.3964871163048"><ele>770.8772116983309</ele><time>2026-01-10T00:06:48Z</time></trkpt><trkpt lat="35.40682010218136" lon="136.39652461703818"><ele>773.8311687335372</ele><time>2026-01-10T00:07:02Z</time></trkpt><trkpt lat="35.407001976034046" lon="136.39652636486952"><ele>775.4836871894076</ele><time>2026-01-10T00:07:22Z</time></trkpt><trkpt lat="35.40718838276919" lon="136.39649505290177"><ele>776.4648742163554</ele><time>2026-01-10T00:08:06Z</time></trkpt><trkpt lat="35.407368449302986" lon="136.39651624023617"><ele>777.442620029673</ele><time>2026-01-10T00:08:32Z</time></trkpt><trkpt lat="35.40755206440112" lon="136.3965122818653"><ele>784.0014885030687</ele><time>2026-01-10T00:09:00Z</time></trkpt><trkpt lat="35.407727882649546" lon="136.39656309273641"><ele>787.9566508438438</ele><time>2026-01-10T00:09:40Z</time></trkpt><trkpt lat="35.40791163506183" lon="136.39656457547835"><ele>794.062723826617</ele><time>2026-01-10T00:10:05Z</time></trkpt><trkpt lat="35.40809054476978" lon="136.3966138188631"><ele>797.5154532724991</ele><time>2026-01-10T00:10:32Z</time></trkpt><trkpt lat="35.40826507807943" lon="136.3966922419518"><ele>802.5099432840943</ele><time>2026-01-10T00:11:19Z</time></trkpt><trkpt lat="35.408437538952654" lon="136.39678006780665"><ele>803.0670326864347</ele><time>2026-01-10T00:11:42Z</time></trkpt><trkpt lat="35.408613748035464" lon="136.3968307716898"><ele>810.8175262622535</ele><time>2026-01-10T00:12:14Z</time></trkpt><trkpt lat="35.408787663450916" lon="136.39692977650557"><ele>817.1735943220556</ele><time>2026-01-10T00:12:49Z</time></trkpt><trkpt lat="35.40870133946214" lon="136.3971522267846"><ele>819.670373971574</ele><time>2026-01-10T00:13:56Z</time></trkpt><trkpt lat="35.408532874680226" lon="136.3972601789295"><ele>822.1077252216637</ele><time>2026-01-10T00:15:39Z</time></trkpt><trkpt lat="35.40840330217463" lon="136.39741707972536"><ele>826.6959656383842</ele><time>2026-01-10T00:16:04Z</time></trkpt><trkpt lat="35.40855986533878" lon="136.39752657315105"><ele>829.3406704822555</ele><time>2026-01-10T00:17:06Z</time></trkpt><trkpt lat="35.408736260624806" lon="136.39759870125087"><ele>836.1176223270595</ele><time>2026-01-10T00:17:47Z</time></trkpt><trkpt lat="35.40880481282961" lon="136.39780235224472"><ele>844.8331763111055</ele><time>2026-01-10T00:18:28Z</time></trkpt><trkpt lat="35.408984234486894" lon="136.3977327379653"><ele>850.1343774581328</ele><time>2026-01-10T00:18:52Z</time></trkpt><trkpt lat="35.40916585325495" lon="136.3976741439163"><ele>848.100219159387</ele><time>2026-01-10T00:19:28Z</time></trkpt><trkpt lat="35.409342796979715" lon="136.39761161941615"><ele>854.2761218408123</ele><time>2026-01-10T00:20:05Z</time></trkpt><trkpt lat="35.40946591907393" lon="136.39778079265028"><ele>871.9843026315793</ele><time>2026-01-10T00:21:07Z</time></trkpt><trkpt lat="35.409543681410966" lon="136.39797993618956"><ele>873.3726409608498</ele><time>2026-01-10T00:22:00Z</time></trkpt><trkpt lat="35.409726433663" lon="136.39798338976212"><ele>875.0066254306585</ele><time>2026-01-10T00:22:38Z</time></trkpt><trkpt lat="35.40990961193692" lon="136.39798657839307"><ele>880.3585498435423</ele><time>2026-01-10T00:23:09Z</time></trkpt><trkpt lat="35.410091932130136" lon="136.39798373465638"><ele>885.6664988743141</ele><time>2026-01-10T00:24:03Z</time></trkpt><trkpt lat="35.410274973030525" lon="136.3979178705423"><ele>887.6333525087684</ele><time>2026-01-10T00:24:47Z</time></trkpt><trkpt lat="35.410446801761886" lon="136.39799179116775"><ele>897.7214456889778</ele><time>2026-01-10T00:25:15Z</time></trkpt><trkpt lat="35.41062708735713" lon="136.39802754133268"><ele>900.0721512455493</ele><time>2026-01-10T00:25:33Z</time></trkpt><trkpt lat="35.41081179055847" lon="136.39804214348808"><ele>900.2383984606713</ele><time>2026-01-10T00:26:13Z</time></trkpt><trkpt lat="35.41099017668124" lon="136.39809587227873"><ele>900.30790077243</ele><time>2026-01-10T00:26:39Z</time></trkpt><trkpt lat="35.41110321044687" lon="136.3982764164575"><ele>907.8741576978937</ele><time>2026-01-10T00:27:07Z</time></trkpt><trkpt lat="35.41124294893565" lon="136.39841663154772"><ele>917.53324975539</ele><time>2026-01-10T00:27:38Z</time></trkpt><trkpt lat="35.41131823476652" lon="136.39861769211026"><ele>925.9375727605075</ele><time>2026-01-10T00:28:16Z</time></trkpt><trkpt lat="35.41146860277723" lon="136.39874575435633"><ele>930.2695077722892</ele><time>2026-01-10T00:29:02Z</time></trkpt><trkpt lat="35.41163336610841" lon="136.39884357384545"><ele>928.894029404968</ele><time>2026-01-10T00:29:53Z</time></trkpt><trkpt lat="35.41181181062461" lon="136.3989292674793"><ele>942.1636763364077</ele><time>2026-01-10T00:30:30Z</time></trkpt><trkpt lat="35.41200728648888" lon="136.39893098843658"><ele>945.6593148289248</ele><time>2026-01-10T00:31:28Z</time></trkpt><trkpt lat="35.412184912873265" lon="136.3989868924797"><ele>954.7789058787748</ele><time>2026-01-10T00:33:05Z</time></trkpt><trkpt lat="35.41225561467468" lon="136.39919819722837"><ele>977.7713819984347</ele><time>2026-01-10T00:35:08Z</time></trkpt><trkpt lat="35.41241767786585" lon="136.39929517299777"><ele>969.9190962258726</ele><time>2026-01-10T00:35:59Z</time></trkpt><trkpt lat="35.41255337905548" lon="136.3994499327721"><ele>982.047243963927</ele><time>2026-01-10T00:37:02Z</time></trkpt><trkpt lat="35.412717094692304" lon="136.39956158645967"><ele>983.8492317870259</ele><time>2026-01-10T00:37:45Z</time></trkpt><trkpt lat="35.412890443648614" lon="136.39963957932775"><ele>993.4395987596363</ele><time>2026-01-10T00:39:11Z</time></trkpt><trkpt lat="35.413042867520446" lon="136.3997603297314"><ele>1007.0562731344253</ele><time>2026-01-10T00:40:04Z</time></trkpt><trkpt lat="35.41319703038007" lon="136.3998865326079"><ele>1016.0516438502818</ele><time>2026-01-10T00:41:19Z</time></trkpt><trkpt lat="35.413272627951294" lon="136.40008725761754"><ele>1023.1124228360131</ele><time>2026-01-10T00:41:57Z</time></trkpt><trkpt lat="35.41345168621804" lon="136.40014608733497"><ele>1027.0089944293723</ele><time>2026-01-10T00:43:16Z</time></trkpt><trkpt lat="35.41348834259596" lon="136.40036188116497"><ele>1036.2708701863885</ele><time>2026-01-10T00:45:26Z</time></trkpt><trkpt lat="35.413627065303075" lon="136.4005031057938"><ele>1039.6445673415437</ele><time>2026-01-10T00:47:02Z</time></trkpt><trkpt lat="35.413794445711474" lon="136.40060635603686"><ele>1057.8396885553375</ele><time>2026-01-10T00:48:13Z</time></trkpt><trkpt lat="35.41393814517329" lon="136.40075020947626"><ele>1063.8800097852945</ele><time>2026-01-10T00:50:22Z</time></trkpt><trkpt lat="35.41411578007036" lon="136.4006772572404"><ele>1077.6415905300528</ele><time>2026-01-10T00:59:19Z</time></trkpt><trkpt lat="35.414287352874226" lon="136.40075780024046"><ele>1082.055040252395</ele><time>2026-01-10T01:00:31Z</time></trkpt><trkpt lat="35.41440344736398" lon="136.40093080721385"><ele>1093.050685509108</ele><time>2026-01-10T01:01:46Z</time></trkpt><trkpt lat="35.41453494482759" lon="136.40108431452032"><ele>1108.0847197249532</ele><time>2026-01-10T01:03:11Z</time></trkpt><trkpt lat="35.41470058410511" lon="136.4011758093453"><ele>1115.742090696469</ele><time>2026-01-10T01:04:22Z</time></trkpt><trkpt lat="35.41485590101279" lon="136.40131980481002"><ele>1136.5447264630347</ele><time>2026-01-10T01:06:13Z</time></trkpt><trkpt lat="35.41500265185954" lon="136.40145731224067"><ele>1139.282370325178</ele><time>2026-01-10T01:07:11Z</time></trkpt><trkpt lat="35.41517422989968" lon="136.40154456121056"><ele>1155.6577677950263</ele><time>2026-01-10T01:08:27Z</time></trkpt><trkpt lat="35.41534597790102" lon="136.40162396762503"><ele>1152.7360321162269</ele><time>2026-01-10T01:11:06Z</time></trkpt><trkpt lat="35.41552022149767" lon="136.40168100203798"><ele>1173.2126965345815</ele><time>2026-01-10T01:12:42Z</time></trkpt><trkpt lat="35.41569570108848" lon="136.4017456303314"><ele>1186.4355988772586</ele><time>2026-01-10T01:13:54Z</time></trkpt><trkpt lat="35.41583698178484" lon="136.40188755143237"><ele>1208.0885717291385</ele><time>2026-01-10T01:15:38Z</time></trkpt><trkpt lat="35.41601634625726" lon="136.40192694095012"><ele>1216.093262506649</ele><time>2026-01-10T01:17:01Z</time></trkpt><trkpt lat="35.416194057950165" lon="136.40200752813104"><ele>1230.2745211562142</ele><time>2026-01-10T01:19:28Z</time></trkpt><trkpt lat="35.41637699679885" lon="136.40202020591292"><ele>1244.6550952317193</ele><time>2026-01-10T01:27:03Z</time></trkpt><trkpt lat="35.41654662529649" lon="136.4021224110559"><ele>1254.6412776745856</ele><time>2026-01-10T01:28:30Z</time></trkpt><trkpt lat="35.416739604055685" lon="136.40219695141727"><ele>1265.3335890332237</ele><time>2026-01-10T01:30:08Z</time></trkpt><trkpt lat="35.41691115284134" lon="136.40226988079888"><ele>1280.6280479850248</ele><time>2026-01-10T01:31:57Z</time></trkpt><trkpt lat="35.417086747569414" lon="136.4023203541726"><ele>1297.5349244736135</ele><time>2026-01-10T01:33:46Z</time></trkpt><trkpt lat="35.41721946258423" lon="136.40247145699047"><ele>1311.1336411144584</ele><time>2026-01-10T01:36:01Z</time></trkpt><trkpt lat="35.4173904164058" lon="136.40255989053549"><ele>1331.446198890917</ele><time>2026-01-10T01:37:35Z</time></trkpt><trkpt lat="35.41757195871792" lon="136.40257948949125"><ele>1334.713827740401</ele><time>2026-01-10T01:39:09Z</time></trkpt><trkpt lat="35.41768331115566" lon="136.402388642202"><ele>1340.8125422550365</ele><time>2026-01-10T01:40:04Z</time></trkpt><trkpt lat="35.41774373223606" lon="136.40217832282033"><ele>1344.2883102092892</ele><time>2026-01-10T01:40:40Z</time></trkpt><trkpt lat="35.41785579462714" lon="136.4020049315828"><ele>1344.276723537594</ele><time>2026-01-10T01:41:04Z</time></trkpt><trkpt lat="35.4177981941448" lon="136.40178406765176"><ele>1346.2056146319956</ele><time>2026-01-10T01:41:30Z</time></trkpt><trkpt lat="35.417802819288916" lon="136.4015615031925"><ele>1342.9751276150346</ele><time>2026-01-10T01:41:48Z</time></trkpt><trkpt lat="35.417917222376026" lon="136.4013806626849"><ele>1341.470044683665</ele><time>2026-01-10T01:42:05Z</time></trkpt><trkpt lat="35.41806237763692" lon="136.4012430007302"><ele>1338.612452645786</ele><time>2026-01-10T01:42:26Z</time></trkpt><trkpt lat="35.41822921551087" lon="136.40133467784335"><ele>1340.9058258058503</ele><time>2026-01-10T01:42:58Z</time></trkpt><trkpt lat="35.41836391292922" lon="136.4014929011861"><ele>1344.1229517785832</ele><time>2026-01-10T01:43:19Z</time></trkpt><trkpt lat="35.418419932414295" lon="136.40170853338822"><ele>1342.703783961013</ele><time>2026-01-10T01:44:13Z</time></trkpt><trkpt lat="35.418368915044944" lon="136.40193206240758"><ele>1348.134738153778</ele><time>2026-01-10T01:45:03Z</time></trkpt><trkpt lat="35.418202865311706" lon="136.4020301904404"><ele>1356.7318149786443</ele><time>2026-01-10T01:46:22Z</time></trkpt><trkpt lat="35.41837121363375" lon="136.40193222223076"><ele>1349.8934664288536</ele><time>2026-01-10T01:48:17Z</time></trkpt><trkpt lat="35.41844998206233" lon="136.4017336978224"><ele>1346.3591609401628</ele><time>2026-01-10T01:48:57Z</time></trkpt><trkpt lat="35.41838540704168" lon="136.40151931309848"><ele>1344.095778615214</ele><time>2026-01-10T01:49:53Z</time></trkpt><trkpt lat="35.41854122944033" lon="136.4014069823649"><ele>1344.2152612013742</ele><time>2026-01-10T01:55:27Z</time></trkpt></trkseg></trk></gpx>