<?xml version='1.0' encoding='UTF-8'?><gpx creator="YAMAP - https://yamap.com" xsi:schemaLocation="http://www.topografix.com/GPX/1/1 http://www.topografix.com/GPX/1/1/gpx.xsd" version="1.1" xmlns="http://www.topografix.com/GPX/1/1" xmlns:xsi="http://www.w3.org/2001/XMLSchema-instance"><metadata><bounds maxlat="35.41660582650026" maxlon="136.40185100970453" minlat="35.39418514525801" minlon="136.38290942686217"/></metadata><trk><name>徳蔵山</name><number>1</number><trkseg><trkpt lat="35.416451767119966" lon="136.40185100970453"><ele>1253.521327972412</ele><time>2025-02-01T02:10:37Z</time></trkpt><trkpt lat="35.41660582650026" lon="136.4016987105239"><ele>1263.8332176208496</ele><time>2025-02-01T02:10:38Z</time></trkpt><trkpt lat="35.41643857544988" lon="136.40160530793096"><ele>1269.2691320274025</ele><time>2025-02-01T02:18:05Z</time></trkpt><trkpt lat="35.41629146631939" lon="136.40147526248472"><ele>1245.053002703935</ele><time>2025-02-01T02:26:14Z</time></trkpt><trkpt lat="35.41611002999951" lon="136.401474398965"><ele>1225.8772495184094</ele><time>2025-02-01T02:34:25Z</time></trkpt><trkpt lat="35.415931448337844" lon="136.40151507867304"><ele>1207.8782967813313</ele><time>2025-02-01T02:42:14Z</time></trkpt><trkpt lat="35.41575296037842" lon="136.4014795583024"><ele>1189.7853557961062</ele><time>2025-02-01T02:47:25Z</time></trkpt><trkpt lat="35.41555865124011" lon="136.40148086453905"><ele>1188.1789322476834</ele><time>2025-02-01T02:50:13Z</time></trkpt><trkpt lat="35.41538335634601" lon="136.40142616373373"><ele>1175.7689289655536</ele><time>2025-02-01T02:51:17Z</time></trkpt><trkpt lat="35.415226293068145" lon="136.4013152938722"><ele>1169.1616932433099</ele><time>2025-02-01T02:52:06Z</time></trkpt><trkpt lat="35.41507281637743" lon="136.40119575660978"><ele>1158.9829508205876</ele><time>2025-02-01T02:52:53Z</time></trkpt><trkpt lat="35.41490294314434" lon="136.40110196344915"><ele>1144.6405142657459</ele><time>2025-02-01T02:53:45Z</time></trkpt><trkpt lat="35.41474997928732" lon="136.40098388494022"><ele>1137.8665196513757</ele><time>2025-02-01T02:54:23Z</time></trkpt><trkpt lat="35.41461082794149" lon="136.40083646935886"><ele>1119.8583405772224</ele><time>2025-02-01T02:55:13Z</time></trkpt><trkpt lat="35.414467623673275" lon="136.40069443720762"><ele>1107.4463441604748</ele><time>2025-02-01T02:56:07Z</time></trkpt><trkpt lat="35.41430456883362" lon="136.40058253651335"><ele>1087.489221780561</ele><time>2025-02-01T02:57:11Z</time></trkpt><trkpt lat="35.41414580219746" lon="136.4004732375328"><ele>1085.7779571879655</ele><time>2025-02-01T02:57:50Z</time></trkpt><trkpt lat="35.413971421513004" lon="136.40040918261198"><ele>1069.0265191430226</ele><time>2025-02-01T02:58:51Z</time></trkpt><trkpt lat="35.41383129769485" lon="136.40026442033937"><ele>1058.479181425646</ele><time>2025-02-01T02:59:36Z</time></trkpt><trkpt lat="35.41366797802463" lon="136.4001589916642"><ele>1049.6691900463775</ele><time>2025-02-01T03:00:20Z</time></trkpt><trkpt lat="35.41348473956134" lon="136.40007384226797"><ele>1038.8422064054757</ele><time>2025-02-01T03:01:10Z</time></trkpt><trkpt lat="35.413365437795335" lon="136.39989834649737"><ele>1029.985105351545</ele><time>2025-02-01T03:01:39Z</time></trkpt><trkpt lat="35.41321437221581" lon="136.3997583607038"><ele>1018.9061347227544</ele><time>2025-02-01T03:02:15Z</time></trkpt><trkpt lat="35.413092813439086" lon="136.39959174309888"><ele>1013.1149398125708</ele><time>2025-02-01T03:02:52Z</time></trkpt><trkpt lat="35.41296386311551" lon="136.39941922447068"><ele>1005.2709392104298</ele><time>2025-02-01T03:03:22Z</time></trkpt><trkpt lat="35.41282357732821" lon="136.39926669321545"><ele>994.6564204106107</ele><time>2025-02-01T03:03:55Z</time></trkpt><trkpt lat="35.412636959186855" lon="136.3992908672735"><ele>989.5447649946436</ele><time>2025-02-01T03:04:27Z</time></trkpt><trkpt lat="35.41245319396483" lon="136.39925511009415"><ele>979.5305842738599</ele><time>2025-02-01T03:04:58Z</time></trkpt><trkpt lat="35.41228623167745" lon="136.39916552712253"><ele>972.7342562694103</ele><time>2025-02-01T03:05:48Z</time></trkpt><trkpt lat="35.41220853070416" lon="136.39896378877106"><ele>961.026213821955</ele><time>2025-02-01T03:06:29Z</time></trkpt><trkpt lat="35.41215571624771" lon="136.39875234439046"><ele>959.469241396524</ele><time>2025-02-01T03:06:49Z</time></trkpt><trkpt lat="35.412127862697936" lon="136.3985284384362"><ele>951.9271241137758</ele><time>2025-02-01T03:07:07Z</time></trkpt><trkpt lat="35.41207004279946" lon="136.39830753821434"><ele>952.5874957367778</ele><time>2025-02-01T03:07:23Z</time></trkpt><trkpt lat="35.4118920869096" lon="136.39834508809722"><ele>944.9095040615648</ele><time>2025-02-01T03:08:03Z</time></trkpt><trkpt lat="35.4117278100606" lon="136.39845503039749"><ele>939.8508973522112</ele><time>2025-02-01T03:08:18Z</time></trkpt><trkpt lat="35.411592010314855" lon="136.39860611745146"><ele>933.4253802988678</ele><time>2025-02-01T03:08:32Z</time></trkpt><trkpt lat="35.411410076267856" lon="136.3986437915441"><ele>932.6231913454831</ele><time>2025-02-01T03:08:49Z</time></trkpt><trkpt lat="35.41131115049694" lon="136.39845615639354"><ele>925.0663064606488</ele><time>2025-02-01T03:09:09Z</time></trkpt><trkpt lat="35.41120979451189" lon="136.39827227642854"><ele>917.6536634312943</ele><time>2025-02-01T03:09:38Z</time></trkpt><trkpt lat="35.41107214999245" lon="136.39812032795663"><ele>915.1059020450339</ele><time>2025-02-01T03:10:14Z</time></trkpt><trkpt lat="35.41089223661281" lon="136.39810251052214"><ele>908.5917082326487</ele><time>2025-02-01T03:10:37Z</time></trkpt><trkpt lat="35.410709443668026" lon="136.39806087706313"><ele>905.2080313777551</ele><time>2025-02-01T03:10:57Z</time></trkpt><trkpt lat="35.41054398469135" lon="136.39795761788477"><ele>893.8075093468651</ele><time>2025-02-01T03:12:24Z</time></trkpt><trkpt lat="35.41035328288911" lon="136.39796915142043"><ele>893.2464470909908</ele><time>2025-02-01T03:12:41Z</time></trkpt><trkpt lat="35.41015720156483" lon="136.3979615602655"><ele>890.7043149732053</ele><time>2025-02-01T03:12:58Z</time></trkpt><trkpt lat="35.40996815748968" lon="136.39795005090062"><ele>889.2497573709115</ele><time>2025-02-01T03:13:12Z</time></trkpt><trkpt lat="35.40978390276346" lon="136.39793463814922"><ele>886.2597432965413</ele><time>2025-02-01T03:13:31Z</time></trkpt><trkpt lat="35.4095979998095" lon="136.39792162040413"><ele>880.1991193024442</ele><time>2025-02-01T03:13:57Z</time></trkpt><trkpt lat="35.40949051268192" lon="136.39773728929606"><ele>869.8640229003504</ele><time>2025-02-01T03:14:22Z</time></trkpt><trkpt lat="35.409370020615725" lon="136.39756702073996"><ele>866.2933487929404</ele><time>2025-02-01T03:14:51Z</time></trkpt><trkpt lat="35.40919752529026" lon="136.39764565673417"><ele>863.0708829080686</ele><time>2025-02-01T03:16:06Z</time></trkpt><trkpt lat="35.40901234939313" lon="136.39769085929248"><ele>861.1536996969953</ele><time>2025-02-01T03:16:24Z</time></trkpt><trkpt lat="35.408836015006294" lon="136.39776440031025"><ele>854.2737677227706</ele><time>2025-02-01T03:16:44Z</time></trkpt><trkpt lat="35.408675233169696" lon="136.39764639110055"><ele>846.664019593969</ele><time>2025-02-01T03:17:15Z</time></trkpt><trkpt lat="35.4085052980646" lon="136.39754414500618"><ele>830.2035774262622</ele><time>2025-02-01T03:18:00Z</time></trkpt><trkpt lat="35.40848193540499" lon="136.397320026857"><ele>825.7742404006422</ele><time>2025-02-01T03:18:25Z</time></trkpt><trkpt lat="35.40861146271295" lon="136.397150750991"><ele>821.2205720311031</ele><time>2025-02-01T03:18:42Z</time></trkpt><trkpt lat="35.408753986662944" lon="136.39700341294224"><ele>816.1306418767199</ele><time>2025-02-01T03:18:56Z</time></trkpt><trkpt lat="35.408757954422825" lon="136.396781558344"><ele>817.2396590523422</ele><time>2025-02-01T03:19:14Z</time></trkpt><trkpt lat="35.40859053902621" lon="136.3966946255585"><ele>810.393527158536</ele><time>2025-02-01T03:19:34Z</time></trkpt><trkpt lat="35.40840324466863" lon="136.39665385707337"><ele>809.7899276548997</ele><time>2025-02-01T03:19:47Z</time></trkpt><trkpt lat="35.408212755208886" lon="136.39662952649022"><ele>807.4663431942463</ele><time>2025-02-01T03:20:03Z</time></trkpt><trkpt lat="35.408030686700606" lon="136.39656492187945"><ele>804.9883817434311</ele><time>2025-02-01T03:20:17Z</time></trkpt><trkpt lat="35.407855613666705" lon="136.39651103108068"><ele>800.4863426312804</ele><time>2025-02-01T03:20:32Z</time></trkpt><trkpt lat="35.407670230486865" lon="136.39651700690612"><ele>794.797262779437</ele><time>2025-02-01T03:20:51Z</time></trkpt><trkpt lat="35.40748557784793" lon="136.39648069779466"><ele>791.161517765373</ele><time>2025-02-01T03:21:06Z</time></trkpt><trkpt lat="35.4072954955167" lon="136.39648591143748"><ele>786.8318297630176</ele><time>2025-02-01T03:21:20Z</time></trkpt><trkpt lat="35.407127617795645" lon="136.39659352865897"><ele>787.9871038412675</ele><time>2025-02-01T03:21:34Z</time></trkpt><trkpt lat="35.40694267094785" lon="136.3966500972912"><ele>780.6934537170455</ele><time>2025-02-01T03:21:56Z</time></trkpt><trkpt lat="35.40677336407177" lon="136.39657076804852"><ele>778.056842122227</ele><time>2025-02-01T03:22:11Z</time></trkpt><trkpt lat="35.40659359202343" lon="136.39650198522725"><ele>774.7601998243481</ele><time>2025-02-01T03:22:25Z</time></trkpt><trkpt lat="35.406412991711356" lon="136.3964314569132"><ele>774.3250868441537</ele><time>2025-02-01T03:22:38Z</time></trkpt><trkpt lat="35.40623463998064" lon="136.39636609640505"><ele>772.9629580443725</ele><time>2025-02-01T03:22:52Z</time></trkpt><trkpt lat="35.40605695308178" lon="136.39626841830594"><ele>767.8946490073577</ele><time>2025-02-01T03:23:12Z</time></trkpt><trkpt lat="35.40587561862535" lon="136.39621485372382"><ele>768.4134685005993</ele><time>2025-02-01T03:23:27Z</time></trkpt><trkpt lat="35.40570996735349" lon="136.39611195488206"><ele>767.9040408059955</ele><time>2025-02-01T03:23:43Z</time></trkpt><trkpt lat="35.4055473521096" lon="136.3959931674058"><ele>764.6770241810009</ele><time>2025-02-01T03:23:57Z</time></trkpt><trkpt lat="35.40537932715452" lon="136.39590934203795"><ele>764.2813433436677</ele><time>2025-02-01T03:24:09Z</time></trkpt><trkpt lat="35.405199079732306" lon="136.39589827721184"><ele>761.7157857604325</ele><time>2025-02-01T03:24:23Z</time></trkpt><trkpt lat="35.405054636017205" lon="136.3960395291814"><ele>763.3095232639462</ele><time>2025-02-01T03:24:37Z</time></trkpt><trkpt lat="35.404866787367844" lon="136.39602244146903"><ele>759.9670586725697</ele><time>2025-02-01T03:24:51Z</time></trkpt><trkpt lat="35.40469657808237" lon="136.3959460477761"><ele>756.4181025987491</ele><time>2025-02-01T03:25:07Z</time></trkpt><trkpt lat="35.40451235895798" lon="136.3959050633383"><ele>762.4966186638921</ele><time>2025-02-01T03:25:20Z</time></trkpt><trkpt lat="35.4043231593047" lon="136.3959551969131"><ele>763.6182161029428</ele><time>2025-02-01T03:25:35Z</time></trkpt><trkpt lat="35.40414912782081" lon="136.39602750678856"><ele>763.8174588782713</ele><time>2025-02-01T03:25:51Z</time></trkpt><trkpt lat="35.403980812258865" lon="136.3961409317919"><ele>764.1822153385729</ele><time>2025-02-01T03:26:08Z</time></trkpt><trkpt lat="35.403833779531496" lon="136.39627409966718"><ele>754.3353651585057</ele><time>2025-02-01T03:26:27Z</time></trkpt><trkpt lat="35.40365476822338" lon="136.39634906527226"><ele>749.0631412221119</ele><time>2025-02-01T03:26:46Z</time></trkpt><trkpt lat="35.403494198509286" lon="136.39645086260444"><ele>746.663271298632</ele><time>2025-02-01T03:27:01Z</time></trkpt><trkpt lat="35.403323177370716" lon="136.39654367485886"><ele>745.0383385671303</ele><time>2025-02-01T03:27:16Z</time></trkpt><trkpt lat="35.40314013172923" lon="136.39660508914898"><ele>743.4702096609399</ele><time>2025-02-01T03:27:32Z</time></trkpt><trkpt lat="35.40296202461882" lon="136.39665658367704"><ele>739.7226753672585</ele><time>2025-02-01T03:27:47Z</time></trkpt><trkpt lat="35.40277663078327" lon="136.3966259741862"><ele>742.9980447245762</ele><time>2025-02-01T03:27:59Z</time></trkpt><trkpt lat="35.402597126412765" lon="136.3966548400222"><ele>738.22757709492</ele><time>2025-02-01T03:28:14Z</time></trkpt><trkpt lat="35.4024169327144" lon="136.39666705095829"><ele>737.8575547393411</ele><time>2025-02-01T03:28:26Z</time></trkpt><trkpt lat="35.402242410586155" lon="136.39660275809078"><ele>735.9427927425131</ele><time>2025-02-01T03:28:39Z</time></trkpt><trkpt lat="35.40206149849306" lon="136.39652500025247"><ele>732.932305819355</ele><time>2025-02-01T03:28:53Z</time></trkpt><trkpt lat="35.40186883922814" lon="136.39653551593833"><ele>728.1102951569483</ele><time>2025-02-01T03:29:09Z</time></trkpt><trkpt lat="35.401761435628195" lon="136.39635817267214"><ele>722.9156856415793</ele><time>2025-02-01T03:29:24Z</time></trkpt><trkpt lat="35.40175074249594" lon="136.3961310197634"><ele>713.6080156611279</ele><time>2025-02-01T03:29:39Z</time></trkpt><trkpt lat="35.40174610264403" lon="136.39590636882824"><ele>711.7037587082013</ele><time>2025-02-01T03:29:54Z</time></trkpt><trkpt lat="35.401721200115226" lon="136.39568543267032"><ele>705.8888367703184</ele><time>2025-02-01T03:30:10Z</time></trkpt><trkpt lat="35.40168811108443" lon="136.3954639024489"><ele>701.7781803561375</ele><time>2025-02-01T03:30:29Z</time></trkpt><trkpt lat="35.40163844603853" lon="136.39523647572443"><ele>697.2679192759097</ele><time>2025-02-01T03:30:45Z</time></trkpt><trkpt lat="35.40147928740018" lon="136.39510680970983"><ele>701.4644111813977</ele><time>2025-02-01T03:30:58Z</time></trkpt><trkpt lat="35.401305146633334" lon="136.3950472184055"><ele>698.2500773370266</ele><time>2025-02-01T03:31:12Z</time></trkpt><trkpt lat="35.40111989185417" lon="136.39502626304622"><ele>697.3507215110585</ele><time>2025-02-01T03:31:27Z</time></trkpt><trkpt lat="35.400954889256596" lon="136.39492874630665"><ele>692.1126040816307</ele><time>2025-02-01T03:31:42Z</time></trkpt><trkpt lat="35.400798128316005" lon="136.39481404216505"><ele>689.720532078296</ele><time>2025-02-01T03:31:56Z</time></trkpt><trkpt lat="35.40079246248701" lon="136.39457928588774"><ele>682.9312756489962</ele><time>2025-02-01T03:32:12Z</time></trkpt><trkpt lat="35.4007892028731" lon="136.3943560046754"><ele>679.9297637417912</ele><time>2025-02-01T03:32:27Z</time></trkpt><trkpt lat="35.40078877617697" lon="136.39413542400442"><ele>673.5665138922632</ele><time>2025-02-01T03:32:43Z</time></trkpt><trkpt lat="35.400781789029836" lon="136.39390590053034"><ele>660.1058603264391</ele><time>2025-02-01T03:33:03Z</time></trkpt><trkpt lat="35.40080643633496" lon="136.39368075844158"><ele>662.4094881052151</ele><time>2025-02-01T03:33:18Z</time></trkpt><trkpt lat="35.400645633462815" lon="136.39357810172"><ele>657.124680112116</ele><time>2025-02-01T03:33:36Z</time></trkpt><trkpt lat="35.400470404952706" lon="136.3935165965407"><ele>656.4740404421464</ele><time>2025-02-01T03:33:49Z</time></trkpt><trkpt lat="35.40029133088122" lon="136.3934618699956"><ele>654.9802841898054</ele><time>2025-02-01T03:34:02Z</time></trkpt><trkpt lat="35.40026976731149" lon="136.39322222073469"><ele>645.1396442120895</ele><time>2025-02-01T03:34:29Z</time></trkpt><trkpt lat="35.40012467243851" lon="136.39308181465464"><ele>640.5848319847137</ele><time>2025-02-01T03:34:46Z</time></trkpt><trkpt lat="35.399953383437854" lon="136.39315693914116"><ele>628.600350625813</ele><time>2025-02-01T03:37:52Z</time></trkpt><trkpt lat="35.399761926668646" lon="136.39314700331525"><ele>622.5236738072708</ele><time>2025-02-01T03:38:13Z</time></trkpt><trkpt lat="35.399586718765086" lon="136.3930822439518"><ele>615.253135483712</ele><time>2025-02-01T03:38:43Z</time></trkpt><trkpt lat="35.399420897804575" lon="136.39318454699077"><ele>611.5423573357984</ele><time>2025-02-01T03:38:57Z</time></trkpt><trkpt lat="35.39926750239477" lon="136.39331487420623"><ele>612.9679132578894</ele><time>2025-02-01T03:39:13Z</time></trkpt><trkpt lat="35.39915620857852" lon="136.3934996022922"><ele>605.8514537457377</ele><time>2025-02-01T03:39:35Z</time></trkpt><trkpt lat="35.39905043582152" lon="136.393684512536"><ele>599.4911827510223</ele><time>2025-02-01T03:39:53Z</time></trkpt><trkpt lat="35.39892145434407" lon="136.393856396843"><ele>598.5805811490864</ele><time>2025-02-01T03:40:08Z</time></trkpt><trkpt lat="35.39879930356892" lon="136.3940344880523"><ele>599.0648354645818</ele><time>2025-02-01T03:40:21Z</time></trkpt><trkpt lat="35.398643022896195" lon="136.3941501947156"><ele>594.230650395155</ele><time>2025-02-01T03:40:39Z</time></trkpt><trkpt lat="35.398471760860836" lon="136.39424033821592"><ele>587.713955860585</ele><time>2025-02-01T03:41:03Z</time></trkpt><trkpt lat="35.398490130132856" lon="136.39401031267482"><ele>582.4462039778009</ele><time>2025-02-01T03:41:20Z</time></trkpt><trkpt lat="35.39850105092414" lon="136.39378061009018"><ele>576.1037300070748</ele><time>2025-02-01T03:41:39Z</time></trkpt><trkpt lat="35.39849393175901" lon="136.3935485842359"><ele>572.269114469178</ele><time>2025-02-01T03:41:56Z</time></trkpt><trkpt lat="35.39836174742767" lon="136.39339119681802"><ele>572.6308371927589</ele><time>2025-02-01T03:42:12Z</time></trkpt><trkpt lat="35.39819067478879" lon="136.3933195368868"><ele>569.214872084558</ele><time>2025-02-01T03:42:28Z</time></trkpt><trkpt lat="35.39801457622814" lon="136.39326496299458"><ele>559.8003400862217</ele><time>2025-02-01T03:42:50Z</time></trkpt><trkpt lat="35.39791303036717" lon="136.3930811084155"><ele>551.12286652904</ele><time>2025-02-01T03:43:09Z</time></trkpt><trkpt lat="35.39786312909072" lon="136.39286654320583"><ele>545.2328778477386</ele><time>2025-02-01T03:43:32Z</time></trkpt><trkpt lat="35.39772346085861" lon="136.39270515140564"><ele>546.5442179050297</ele><time>2025-02-01T03:43:46Z</time></trkpt><trkpt lat="35.397587599829315" lon="136.39254615459262"><ele>544.5681349765509</ele><time>2025-02-01T03:44:00Z</time></trkpt><trkpt lat="35.39744868502694" lon="136.39238327862873"><ele>539.2313887458295</ele><time>2025-02-01T03:44:16Z</time></trkpt><trkpt lat="35.39734996745982" lon="136.39219619362498"><ele>538.6637754170224</ele><time>2025-02-01T03:44:30Z</time></trkpt><trkpt lat="35.39722202513115" lon="136.39203457184306"><ele>529.8432860029861</ele><time>2025-02-01T03:44:49Z</time></trkpt><trkpt lat="35.397101641502395" lon="136.3918489052727"><ele>525.4618674824014</ele><time>2025-02-01T03:45:04Z</time></trkpt><trkpt lat="35.39696562194585" lon="136.39170422394002"><ele>524.9155953554437</ele><time>2025-02-01T03:45:18Z</time></trkpt><trkpt lat="35.39686592849682" lon="136.39150581826362"><ele>519.5086505562067</ele><time>2025-02-01T03:45:35Z</time></trkpt><trkpt lat="35.39675805301724" lon="136.39131187665996"><ele>515.3933928497136</ele><time>2025-02-01T03:45:51Z</time></trkpt><trkpt lat="35.396631461983006" lon="136.3911502322366"><ele>513.1007974827662</ele><time>2025-02-01T03:46:08Z</time></trkpt><trkpt lat="35.39671730520688" lon="136.39092915553397"><ele>501.4624709924683</ele><time>2025-02-01T03:47:35Z</time></trkpt><trkpt lat="35.39673409516537" lon="136.39070544755876"><ele>499.2611701078713</ele><time>2025-02-01T03:47:57Z</time></trkpt><trkpt lat="35.39655953922721" lon="136.39060387087477"><ele>494.10540395323187</ele><time>2025-02-01T03:48:25Z</time></trkpt><trkpt lat="35.39649708670515" lon="136.39039318028924"><ele>485.78941909596324</ele><time>2025-02-01T03:48:53Z</time></trkpt><trkpt lat="35.39637219098645" lon="136.3902261176199"><ele>480.02082083188</ele><time>2025-02-01T03:49:29Z</time></trkpt><trkpt lat="35.396223159443764" lon="136.39009828995484"><ele>473.5456542093307</ele><time>2025-02-01T03:49:56Z</time></trkpt><trkpt lat="35.39605849081466" lon="136.39000843598365"><ele>468.8178459741175</ele><time>2025-02-01T03:50:21Z</time></trkpt><trkpt lat="35.39591739173889" lon="136.3898593942789"><ele>464.3566534500569</ele><time>2025-02-01T03:50:46Z</time></trkpt><trkpt lat="35.39578581747525" lon="136.38970838006915"><ele>459.1245023980737</ele><time>2025-02-01T03:51:09Z</time></trkpt><trkpt lat="35.39564470963314" lon="136.38956572940447"><ele>451.582933424972</ele><time>2025-02-01T03:51:33Z</time></trkpt><trkpt lat="35.39557763745802" lon="136.3893453066949"><ele>446.5582155082375</ele><time>2025-02-01T03:51:57Z</time></trkpt><trkpt lat="35.39549857078916" lon="136.38914727295187"><ele>439.75975406728685</ele><time>2025-02-01T03:52:21Z</time></trkpt><trkpt lat="35.39544584847274" lon="136.3889231293168"><ele>434.88258120417595</ele><time>2025-02-01T03:52:41Z</time></trkpt><trkpt lat="35.3953305005077" lon="136.3887505218788"><ele>432.02066061552614</ele><time>2025-02-01T03:53:00Z</time></trkpt><trkpt lat="35.39529540606488" lon="136.3885315388445"><ele>430.7198863364756</ele><time>2025-02-01T03:57:52Z</time></trkpt><trkpt lat="35.39524057680683" lon="136.3883212886872"><ele>429.49134909454733</ele><time>2025-02-01T03:59:28Z</time></trkpt><trkpt lat="35.39511807224393" lon="136.38815160921325"><ele>425.62552807759494</ele><time>2025-02-01T03:59:47Z</time></trkpt><trkpt lat="35.395011797894966" lon="136.38796043048558"><ele>422.91951555293053</ele><time>2025-02-01T04:00:02Z</time></trkpt><trkpt lat="35.39500543196362" lon="136.38773562774801"><ele>417.8099410869181</ele><time>2025-02-01T04:00:18Z</time></trkpt><trkpt lat="35.39511180453706" lon="136.38754828711575"><ele>407.1985193938017</ele><time>2025-02-01T04:00:39Z</time></trkpt><trkpt lat="35.39493482593754" lon="136.38747330056557"><ele>402.9917077952996</ele><time>2025-02-01T04:00:56Z</time></trkpt><trkpt lat="35.39503785803369" lon="136.38727479556877"><ele>399.73394178412855</ele><time>2025-02-01T04:01:14Z</time></trkpt><trkpt lat="35.39514472433675" lon="136.38709464998598"><ele>393.066891903989</ele><time>2025-02-01T04:01:35Z</time></trkpt><trkpt lat="35.39531199156444" lon="136.38700363550137"><ele>392.8927353685722</ele><time>2025-02-01T04:01:53Z</time></trkpt><trkpt lat="35.395496680993425" lon="136.38692346779297"><ele>390.4416088620201</ele><time>2025-02-01T04:02:24Z</time></trkpt><trkpt lat="35.395678454073895" lon="136.38690513062025"><ele>387.8116304092109</ele><time>2025-02-01T04:02:49Z</time></trkpt><trkpt lat="35.39586692438197" lon="136.38689268826928"><ele>384.2439957195893</ele><time>2025-02-01T04:03:15Z</time></trkpt><trkpt lat="35.39581582440152" lon="136.386680205406"><ele>377.41522808838636</ele><time>2025-02-01T04:04:12Z</time></trkpt><trkpt lat="35.39574933501421" lon="136.38647235169628"><ele>372.8611241681501</ele><time>2025-02-01T04:04:39Z</time></trkpt><trkpt lat="35.39558357329132" lon="136.38637482948613"><ele>370.3235343545675</ele><time>2025-02-01T04:04:59Z</time></trkpt><trkpt lat="35.39543173266452" lon="136.38624849530785"><ele>365.7550363447517</ele><time>2025-02-01T04:05:28Z</time></trkpt><trkpt lat="35.39526185143585" lon="136.38613794110083"><ele>360.9189350511879</ele><time>2025-02-01T04:06:01Z</time></trkpt><trkpt lat="35.395095254840015" lon="136.38601056387063"><ele>352.55352817475796</ele><time>2025-02-01T04:06:35Z</time></trkpt><trkpt lat="35.39493328989661" lon="136.38589813097087"><ele>349.98527419008315</ele><time>2025-02-01T04:07:00Z</time></trkpt><trkpt lat="35.394754216683666" lon="136.3858312745421"><ele>347.49708027765155</ele><time>2025-02-01T04:07:24Z</time></trkpt><trkpt lat="35.394714030072244" lon="136.38559626480105"><ele>335.35571866389364</ele><time>2025-02-01T04:08:03Z</time></trkpt><trkpt lat="35.39490020273087" lon="136.3855080056771"><ele>336.8662035483867</ele><time>2025-02-01T04:08:29Z</time></trkpt><trkpt lat="35.39508484311409" lon="136.38545232514318"><ele>332.30668896250427</ele><time>2025-02-01T04:08:57Z</time></trkpt><trkpt lat="35.395277484716715" lon="136.38545635274062"><ele>332.1024794187397</ele><time>2025-02-01T04:09:20Z</time></trkpt><trkpt lat="35.39515301593876" lon="136.3852940557011"><ele>326.81814746093005</ele><time>2025-02-01T04:09:50Z</time></trkpt><trkpt lat="35.39517750219062" lon="136.38506963734392"><ele>319.1406424669549</ele><time>2025-02-01T04:10:17Z</time></trkpt><trkpt lat="35.39535043071739" lon="136.3851568567022"><ele>315.9411426736042</ele><time>2025-02-01T04:10:37Z</time></trkpt><trkpt lat="35.39534292591025" lon="136.38492769774396"><ele>309.35679902043194</ele><time>2025-02-01T04:11:42Z</time></trkpt><trkpt lat="35.39524537091023" lon="136.38472203291818"><ele>300.7575831608847</ele><time>2025-02-01T04:12:42Z</time></trkpt><trkpt lat="35.39543175185081" lon="136.38461237649568"><ele>296.8733370164409</ele><time>2025-02-01T04:13:11Z</time></trkpt><trkpt lat="35.39556731205716" lon="136.38444494133816"><ele>287.05438720528036</ele><time>2025-02-01T04:14:16Z</time></trkpt><trkpt lat="35.395742968171035" lon="136.3845087614813"><ele>284.04074219428</ele><time>2025-02-01T04:14:41Z</time></trkpt><trkpt lat="35.395665250721976" lon="136.38430083766968"><ele>280.2306578811258</ele><time>2025-02-01T04:15:09Z</time></trkpt><trkpt lat="35.39550878124077" lon="136.38417848118527"><ele>277.2568889390677</ele><time>2025-02-01T04:15:30Z</time></trkpt><trkpt lat="35.39532719313797" lon="136.3840891788794"><ele>273.65158891677856</ele><time>2025-02-01T04:15:52Z</time></trkpt><trkpt lat="35.395137732538295" lon="136.3840547912333"><ele>271.5182500910014</ele><time>2025-02-01T04:16:11Z</time></trkpt><trkpt lat="35.39495979752103" lon="136.38399640741721"><ele>267.5186812840402</ele><time>2025-02-01T04:16:31Z</time></trkpt><trkpt lat="35.39477523186482" lon="136.3839926574548"><ele>262.49085044208914</ele><time>2025-02-01T04:16:47Z</time></trkpt><trkpt lat="35.39459185951462" lon="136.38398973829467"><ele>256.3323054490611</ele><time>2025-02-01T04:17:09Z</time></trkpt><trkpt lat="35.394640858422704" lon="136.38373204232292"><ele>244.23959103506058</ele><time>2025-02-01T04:18:07Z</time></trkpt><trkpt lat="35.39471052233308" lon="136.3835201343409"><ele>236.27153521869332</ele><time>2025-02-01T04:18:56Z</time></trkpt><trkpt lat="35.394529447733234" lon="136.38354458216062"><ele>226.63076338358223</ele><time>2025-02-01T04:19:19Z</time></trkpt><trkpt lat="35.394603690409" lon="136.3833358559221"><ele>222.50050363130867</ele><time>2025-02-01T04:19:56Z</time></trkpt><trkpt lat="35.39434608727659" lon="136.38312214662108"><ele>207.00749998167157</ele><time>2025-02-01T04:25:32Z</time></trkpt><trkpt lat="35.39448937870133" lon="136.38309482497758"><ele>241.54509735107422</ele><time>2025-02-01T04:25:50Z</time></trkpt><trkpt lat="35.394548567316406" lon="136.38331724867157"><ele>225.03241109661758</ele><time>2025-02-01T04:25:55Z</time></trkpt><trkpt lat="35.394461760330486" lon="136.3831181266684"><ele>221.82378389313817</ele><time>2025-02-01T04:29:00Z</time></trkpt><trkpt lat="35.394607340965784" lon="136.3832452075792"><ele>227.06316533125937</ele><time>2025-02-01T04:29:09Z</time></trkpt><trkpt lat="35.39447974403338" lon="136.38341376362393"><ele>236.503356102854</ele><time>2025-02-01T04:30:50Z</time></trkpt><trkpt lat="35.394292650777224" lon="136.38334441569307"><ele>225.84101209789515</ele><time>2025-02-01T04:31:10Z</time></trkpt><trkpt lat="35.39419712387007" lon="136.38314070260756"><ele>222.60006628278643</ele><time>2025-02-01T04:31:23Z</time></trkpt><trkpt lat="35.39418514525801" lon="136.38290942686217"><ele>221.04273207113147</ele><time>2025-02-01T04:31:36Z</time></trkpt></trkseg></trk></gpx>